; kobra-plot generated offline job
; profile=kobra2-neo-pen
; homing intentionally omitted
G90
G0 Z6.12 F180
G0 X38.00 Y208.00 F3000
G0 Z2.97 F180
G1 X188.00 Y208.00 F1200
G1 X188.00 Y58.00 F1200
G1 X38.00 Y58.00 F1200
G1 X38.00 Y208.00 F1200
G0 Z6.12 F180
G0 X60.92 Y189.25 F3000
G0 Z2.97 F180
G1 X60.92 Y162.17 F1200
G0 Z6.12 F180
G0 X60.45 Y161.20 F3000
G0 Z2.97 F180
G1 X60.64 Y161.11 F1200
G1 X60.73 Y160.73 F1200
G1 X60.45 Y160.36 F1200
G1 X59.89 Y159.99 F1200
G0 Z6.12 F180
G0 X59.62 Y159.53 F3000
G0 Z2.97 F180
G1 X60.08 Y159.25 F1200
G1 X60.36 Y159.25 F1200
G1 X60.55 Y159.34 F1200
G1 X60.64 Y159.62 F1200
G0 Z6.12 F180
G0 X60.64 Y159.62 F3000
G0 Z2.97 F180
G1 X60.55 Y159.43 F1200
G1 X60.36 Y159.34 F1200
G1 X60.08 Y159.34 F1200
G1 X59.62 Y159.53 F1200
G1 X59.43 Y159.53 F1200
G1 X59.34 Y159.43 F1200
G0 Z6.12 F180
G0 X59.24 Y159.25 F3000
G0 Z2.97 F180
G1 X59.62 Y159.80 F1200
G1 X60.73 Y160.55 F1200
G1 X60.82 Y160.92 F1200
G1 X60.73 Y161.11 F1200
G1 X60.17 Y161.20 F1200
G1 X59.80 Y161.01 F1200
G1 X59.71 Y160.73 F1200
G1 X59.80 Y160.64 F1200
G1 X59.89 Y160.73 F1200
G1 X59.80 Y160.83 F1200
G0 Z6.12 F180
G0 X62.22 Y161.20 F3000
G0 Z2.97 F180
G1 X61.94 Y161.11 F1200
G1 X61.75 Y160.92 F1200
G1 X61.57 Y160.64 F1200
G1 X61.38 Y159.99 F1200
G1 X61.47 Y159.43 F1200
G1 X61.75 Y159.25 F1200
G1 X62.22 Y159.34 F1200
G1 X62.40 Y159.53 F1200
G1 X62.59 Y159.80 F1200
G1 X62.77 Y160.45 F1200
G1 X62.68 Y161.01 F1200
G1 X62.40 Y161.20 F1200
G1 X62.22 Y161.20 F1200
G0 Z6.12 F180
G0 X62.22 Y161.20 F3000
G0 Z2.97 F180
G1 X62.03 Y161.11 F1200
G1 X61.66 Y160.64 F1200
G1 X61.47 Y159.99 F1200
G1 X61.57 Y159.43 F1200
G1 X61.75 Y159.25 F1200
G0 Z6.12 F180
G0 X61.94 Y159.25 F3000
G0 Z2.97 F180
G1 X62.12 Y159.34 F1200
G1 X62.50 Y159.80 F1200
G1 X62.68 Y160.45 F1200
G1 X62.59 Y161.01 F1200
G1 X62.40 Y161.20 F1200
G0 Z6.12 F180
G0 X69.25 Y159.15 F3000
G0 Z2.97 F180
G1 X71.33 Y158.00 F1200
G0 Z6.12 F180
G0 X71.33 Y158.00 F3000
G0 Z2.97 F180
G1 X69.25 Y156.85 F1200
G0 Z6.12 F180
G0 X71.33 Y155.92 F3000
G0 Z2.97 F180
G1 X71.33 Y165.29 F1200
G0 Z6.12 F180
G0 X71.33 Y158.00 F3000
G0 Z2.97 F180
G1 X50.50 Y158.00 F1200
G0 Z6.12 F180
G0 X50.50 Y158.00 F3000
G0 Z2.97 F180
G1 X52.58 Y156.85 F1200
G0 Z6.12 F180
G0 X50.50 Y155.92 F3000
G0 Z2.97 F180
G1 X50.50 Y165.29 F1200
G0 Z6.12 F180
G0 X52.58 Y159.15 F3000
G0 Z2.97 F180
G1 X50.50 Y158.00 F1200
G0 Z6.12 F180
G0 X50.36 Y151.72 F3000
G0 Z2.97 F180
G1 X50.19 Y149.95 F1200
G0 Z6.12 F180
G0 X50.19 Y149.95 F3000
G0 Z2.97 F180
G1 X50.70 Y151.05 F1200
G1 X51.20 Y151.64 F1200
G1 X51.37 Y151.72 F1200
G0 Z6.12 F180
G0 X50.36 Y151.72 F3000
G0 Z2.97 F180
G1 X49.51 Y149.95 F1200
G0 Z6.12 F180
G0 X49.51 Y149.95 F3000
G0 Z2.97 F180
G1 X49.60 Y151.47 F1200
G1 X49.51 Y151.64 F1200
G1 X49.35 Y151.72 F1200
G1 X49.09 Y151.64 F1200
G1 X49.01 Y151.47 F1200
G1 X49.09 Y151.22 F1200
G1 X49.26 Y151.13 F1200
G0 Z6.12 F180
G0 X51.71 Y150.37 F3000
G0 Z2.97 F180
G1 X51.37 Y150.46 F1200
G1 X51.29 Y150.37 F1200
G1 X51.37 Y150.03 F1200
G1 X51.71 Y149.95 F1200
G1 X52.05 Y150.20 F1200
G1 X52.30 Y150.79 F1200
G1 X52.39 Y151.47 F1200
G1 X52.22 Y151.72 F1200
G1 X52.05 Y151.72 F1200
G1 X51.88 Y151.47 F1200
G1 X51.88 Y151.22 F1200
G1 X52.05 Y150.79 F1200
G1 X52.39 Y150.37 F1200
G0 Z6.12 F180
G0 X53.74 Y151.72 F3000
G0 Z2.97 F180
G1 X53.57 Y151.64 F1200
G1 X53.48 Y151.47 F1200
G1 X53.32 Y150.62 F1200
G1 X53.15 Y150.20 F1200
G1 X52.81 Y149.95 F1200
G1 X52.64 Y149.95 F1200
G1 X52.56 Y150.03 F1200
G1 X52.56 Y150.20 F1200
G1 X52.64 Y150.29 F1200
G1 X52.81 Y150.29 F1200
G1 X53.15 Y150.03 F1200
G1 X53.40 Y149.95 F1200
G1 X53.91 Y150.03 F1200
G1 X54.08 Y150.20 F1200
G1 X54.24 Y150.54 F1200
G1 X54.33 Y151.30 F1200
G1 X54.16 Y151.64 F1200
G1 X53.74 Y151.72 F1200
G1 X53.57 Y151.55 F1200
G1 X53.65 Y151.13 F1200
G1 X53.99 Y150.71 F1200
G1 X54.41 Y150.46 F1200
G0 Z6.12 F180
G0 X55.60 Y151.72 F3000
G0 Z2.97 F180
G1 X55.34 Y151.64 F1200
G1 X55.17 Y151.47 F1200
G1 X54.92 Y151.05 F1200
G1 X54.84 Y150.71 F1200
G1 X54.92 Y150.12 F1200
G1 X55.17 Y149.95 F1200
G1 X55.60 Y150.03 F1200
G1 X56.02 Y150.62 F1200
G1 X56.10 Y150.96 F1200
G1 X56.02 Y151.55 F1200
G1 X55.76 Y151.72 F1200
G1 X55.60 Y151.72 F1200
G1 X55.43 Y151.55 F1200
G1 X55.51 Y151.05 F1200
G1 X55.85 Y150.62 F1200
G1 X56.27 Y150.37 F1200
G0 Z6.12 F180
G0 X56.44 Y150.20 F3000
G0 Z2.97 F180
G1 X56.44 Y150.03 F1200
G1 X56.52 Y149.95 F1200
G1 X56.69 Y149.95 F1200
G1 X57.03 Y150.46 F1200
G1 X57.28 Y151.47 F1200
G1 X57.20 Y151.64 F1200
G1 X57.03 Y151.72 F1200
G1 X56.78 Y151.64 F1200
G1 X56.69 Y151.47 F1200
G1 X56.78 Y151.22 F1200
G1 X56.95 Y151.13 F1200
G0 Z6.12 F180
G0 X57.20 Y150.96 F3000
G0 Z2.97 F180
G1 X57.54 Y151.05 F1200
G1 X57.88 Y151.47 F1200
G1 X58.21 Y151.72 F1200
G1 X58.38 Y151.64 F1200
G1 X58.38 Y151.47 F1200
G0 Z6.12 F180
G0 X58.13 Y150.37 F3000
G0 Z2.97 F180
G1 X57.88 Y150.03 F1200
G1 X57.62 Y149.95 F1200
G1 X57.45 Y150.20 F1200
G1 X57.45 Y150.79 F1200
G1 X57.37 Y150.96 F1200
G0 Z6.12 F180
G0 X60.75 Y151.72 F3000
G0 Z2.97 F180
G1 X60.49 Y151.64 F1200
G1 X60.07 Y151.05 F1200
G1 X59.99 Y150.71 F1200
G1 X60.07 Y150.12 F1200
G1 X60.33 Y149.95 F1200
G1 X60.75 Y150.03 F1200
G1 X61.17 Y150.62 F1200
G1 X61.25 Y150.96 F1200
G1 X61.17 Y151.55 F1200
G1 X60.92 Y151.72 F1200
G1 X60.75 Y151.72 F1200
G1 X60.58 Y151.55 F1200
G1 X60.66 Y151.05 F1200
G1 X61.00 Y150.62 F1200
G1 X61.42 Y150.37 F1200
G0 Z6.12 F180
G0 X62.61 Y151.72 F3000
G0 Z2.97 F180
G1 X62.44 Y151.64 F1200
G1 X62.35 Y151.47 F1200
G1 X62.18 Y150.62 F1200
G1 X62.01 Y150.20 F1200
G1 X61.68 Y149.95 F1200
G1 X61.51 Y149.95 F1200
G1 X61.42 Y150.03 F1200
G1 X61.42 Y150.20 F1200
G1 X61.51 Y150.29 F1200
G1 X61.68 Y150.29 F1200
G1 X62.01 Y150.03 F1200
G1 X62.27 Y149.95 F1200
G1 X62.77 Y150.03 F1200
G1 X62.94 Y150.20 F1200
G1 X63.11 Y150.54 F1200
G1 X63.20 Y151.30 F1200
G1 X63.03 Y151.64 F1200
G1 X62.61 Y151.72 F1200
G1 X62.44 Y151.55 F1200
G1 X62.52 Y151.13 F1200
G1 X62.86 Y150.71 F1200
G1 X63.28 Y150.46 F1200
G0 Z6.12 F180
G0 X65.82 Y151.22 F3000
G0 Z2.97 F180
G1 X65.90 Y151.05 F1200
G1 X66.24 Y151.13 F1200
G1 X66.32 Y151.30 F1200
G1 X66.24 Y151.64 F1200
G1 X65.82 Y151.72 F1200
G1 X65.56 Y151.64 F1200
G1 X65.39 Y151.47 F1200
G1 X65.14 Y151.05 F1200
G1 X65.06 Y150.37 F1200
G1 X65.14 Y150.12 F1200
G1 X65.39 Y149.95 F1200
G1 X65.82 Y150.03 F1200
G1 X66.07 Y150.37 F1200
G0 Z6.12 F180
G0 X67.59 Y151.22 F3000
G0 Z2.97 F180
G1 X67.42 Y150.96 F1200
G1 X67.08 Y150.88 F1200
G1 X67.00 Y151.05 F1200
G1 X67.08 Y151.47 F1200
G1 X67.25 Y151.64 F1200
G1 X67.76 Y151.72 F1200
G1 X67.93 Y151.64 F1200
G1 X68.01 Y151.47 F1200
G1 X68.01 Y151.13 F1200
G1 X67.76 Y150.54 F1200
G1 X67.17 Y150.03 F1200
G1 X66.74 Y149.95 F1200
G1 X66.66 Y150.03 F1200
G1 X66.66 Y150.20 F1200
G1 X66.74 Y150.29 F1200
G1 X67.00 Y150.29 F1200
G1 X67.17 Y150.20 F1200
G1 X67.34 Y149.95 F1200
G1 X67.34 Y149.69 F1200
G1 X67.17 Y149.27 F1200
G1 X67.00 Y149.02 F1200
G1 X66.83 Y148.93 F1200
G1 X66.74 Y149.02 F1200
G1 X66.74 Y149.19 F1200
G1 X67.00 Y149.69 F1200
G1 X67.50 Y150.12 F1200
G1 X68.01 Y150.37 F1200
G0 Z6.12 F180
G0 X69.28 Y151.72 F3000
G0 Z2.97 F180
G1 X69.02 Y151.64 F1200
G1 X68.60 Y151.05 F1200
G1 X68.52 Y150.71 F1200
G1 X68.60 Y150.12 F1200
G1 X68.86 Y149.95 F1200
G1 X69.28 Y150.03 F1200
G1 X69.70 Y150.62 F1200
G1 X69.78 Y150.96 F1200
G1 X69.70 Y151.55 F1200
G1 X69.45 Y151.72 F1200
G1 X69.28 Y151.72 F1200
G1 X69.11 Y151.55 F1200
G1 X69.19 Y151.05 F1200
G1 X69.53 Y150.62 F1200
G1 X69.95 Y150.37 F1200
G0 Z6.12 F180
G0 X70.38 Y150.71 F3000
G0 Z2.97 F180
G1 X70.88 Y150.79 F1200
G1 X71.31 Y151.13 F1200
G1 X71.39 Y151.30 F1200
G1 X71.31 Y151.72 F1200
G1 X71.14 Y151.72 F1200
G1 X70.97 Y151.47 F1200
G1 X70.80 Y150.62 F1200
G1 X70.63 Y150.20 F1200
G1 X70.29 Y149.95 F1200
G1 X70.12 Y149.95 F1200
G1 X70.04 Y150.03 F1200
G1 X70.04 Y150.20 F1200
G1 X70.12 Y150.29 F1200
G1 X70.29 Y150.29 F1200
G1 X70.97 Y149.95 F1200
G1 X71.39 Y150.03 F1200
G1 X71.56 Y150.20 F1200
G0 Z6.12 F180
G0 X71.64 Y149.95 F3000
G0 Z2.97 F180
G1 X71.81 Y150.03 F1200
G1 X72.32 Y150.62 F1200
G1 X72.91 Y151.72 F1200
G1 X72.91 Y149.95 F1200
G1 X72.66 Y150.46 F1200
G1 X72.23 Y150.79 F1200
G1 X72.07 Y150.79 F1200
G1 X71.98 Y150.71 F1200
G1 X71.98 Y150.54 F1200
G1 X72.07 Y150.37 F1200
G1 X72.49 Y150.03 F1200
G1 X72.74 Y149.95 F1200
G1 X73.16 Y149.95 F1200
G0 Z6.12 F180
G0 X76.54 Y125.71 F3000
G0 Z2.97 F180
G1 X64.04 Y125.71 F1200
G0 Z6.12 F180
G0 X64.04 Y125.71 F3000
G0 Z2.97 F180
G1 X57.79 Y115.29 F1200
G0 Z6.12 F180
G0 X57.79 Y115.29 F3000
G0 Z2.97 F180
G1 X53.62 Y121.54 F1200
G0 Z6.12 F180
G0 X47.38 Y109.04 F3000
G0 Z2.97 F180
G1 X89.04 Y109.04 F1200
G0 Z6.12 F180
G0 X99.46 Y117.37 F3000
G0 Z2.97 F180
G1 X97.37 Y119.46 F1200
G0 Z6.12 F180
G0 X97.37 Y127.79 F3000
G0 Z2.97 F180
G1 X149.46 Y127.79 F1200
G0 Z6.12 F180
G0 X151.54 Y127.79 F3000
G0 Z2.97 F180
G1 X95.29 Y127.79 F1200
G0 Z6.12 F180
G0 X97.37 Y136.13 F3000
G0 Z2.97 F180
G1 X99.46 Y138.21 F1200
G0 Z6.12 F180
G0 X97.37 Y138.21 F3000
G0 Z2.97 F180
G1 X149.46 Y138.21 F1200
G1 X149.46 Y117.37 F1200
G1 X97.37 Y117.37 F1200
G1 X97.37 Y138.21 F1200
G0 Z6.12 F180
G0 X97.37 Y154.88 F3000
G0 Z2.97 F180
G1 X97.37 Y165.29 F1200
G0 Z6.12 F180
G0 X99.46 Y165.29 F3000
G0 Z2.97 F180
G1 X97.37 Y167.38 F1200
G0 Z6.12 F180
G0 X97.37 Y175.71 F3000
G0 Z2.97 F180
G1 X149.46 Y175.71 F1200
G0 Z6.12 F180
G0 X151.54 Y175.71 F3000
G0 Z2.97 F180
G1 X95.29 Y175.71 F1200
G0 Z6.12 F180
G0 X97.37 Y184.04 F3000
G0 Z2.97 F180
G1 X99.46 Y186.13 F1200
G0 Z6.12 F180
G0 X97.37 Y186.13 F3000
G0 Z2.97 F180
G1 X149.46 Y186.13 F1200
G1 X149.46 Y165.29 F1200
G1 X97.37 Y165.29 F1200
G1 X97.37 Y186.13 F1200
G0 Z6.12 F180
G0 X74.46 Y175.71 F3000
G0 Z2.97 F180
G1 X47.38 Y175.71 F1200
G0 Z6.12 F180
G0 X71.33 Y175.71 F3000
G0 Z2.97 F180
G1 X71.28 Y174.67 F1200
G1 X71.13 Y173.64 F1200
G1 X70.87 Y172.63 F1200
G1 X70.51 Y171.65 F1200
G1 X69.57 Y169.91 F1200
G1 X68.95 Y169.07 F1200
G1 X68.25 Y168.31 F1200
G1 X67.47 Y167.61 F1200
G1 X66.63 Y167.00 F1200
G1 X64.88 Y166.07 F1200
G1 X62.99 Y165.50 F1200
G1 X61.96 Y165.34 F1200
G1 X60.92 Y165.29 F1200
G1 X59.88 Y165.34 F1200
G1 X58.85 Y165.50 F1200
G1 X56.95 Y166.07 F1200
G1 X55.21 Y167.00 F1200
G1 X54.36 Y167.61 F1200
G1 X53.59 Y168.31 F1200
G1 X52.32 Y169.82 F1200
G1 X51.78 Y170.71 F1200
G1 X51.32 Y171.65 F1200
G1 X50.97 Y172.63 F1200
G1 X50.71 Y173.64 F1200
G1 X50.50 Y175.71 F1200
G1 X50.71 Y177.78 F1200
G1 X51.28 Y179.67 F1200
G1 X52.21 Y181.42 F1200
G1 X52.82 Y182.26 F1200
G1 X53.51 Y183.04 F1200
G1 X55.03 Y184.30 F1200
G1 X55.92 Y184.85 F1200
G1 X56.86 Y185.30 F1200
G1 X57.84 Y185.66 F1200
G1 X58.85 Y185.92 F1200
G1 X59.88 Y186.07 F1200
G1 X60.92 Y186.13 F1200
G1 X61.96 Y186.07 F1200
G1 X62.99 Y185.92 F1200
G1 X64.88 Y185.34 F1200
G1 X66.63 Y184.42 F1200
G1 X67.47 Y183.81 F1200
G1 X68.25 Y183.11 F1200
G1 X69.51 Y181.59 F1200
G1 X70.06 Y180.70 F1200
G1 X70.51 Y179.77 F1200
G1 X70.87 Y178.79 F1200
G1 X71.13 Y177.78 F1200
G1 X71.28 Y176.75 F1200
G1 X71.33 Y175.71 F1200
G0 Z6.12 F180
G0 X97.37 Y156.96 F3000
G0 Z2.97 F180
G1 X99.46 Y155.81 F1200
G0 Z6.12 F180
G0 X99.46 Y158.10 F3000
G0 Z2.97 F180
G1 X97.37 Y156.96 F1200
G0 Z6.12 F180
G0 X97.37 Y156.96 F3000
G0 Z2.97 F180
G1 X149.46 Y156.96 F1200
G0 Z6.12 F180
G0 X149.46 Y156.96 F3000
G0 Z2.97 F180
G1 X147.37 Y155.81 F1200
G0 Z6.12 F180
G0 X149.46 Y154.88 F3000
G0 Z2.97 F180
G1 X149.46 Y165.29 F1200
G0 Z6.12 F180
G0 X149.46 Y165.29 F3000
G0 Z2.97 F180
G1 X159.87 Y165.29 F1200
G0 Z6.12 F180
G0 X157.79 Y165.29 F3000
G0 Z2.97 F180
G1 X158.94 Y167.38 F1200
G0 Z6.12 F180
G0 X156.65 Y167.38 F3000
G0 Z2.97 F180
G1 X157.79 Y165.29 F1200
G0 Z6.12 F180
G0 X157.79 Y165.29 F3000
G0 Z2.97 F180
G1 X157.79 Y186.13 F1200
G0 Z6.12 F180
G0 X157.79 Y186.13 F3000
G0 Z2.97 F180
G1 X158.94 Y184.04 F1200
G0 Z6.12 F180
G0 X159.87 Y186.13 F3000
G0 Z2.97 F180
G1 X149.46 Y186.13 F1200
G0 Z6.12 F180
G0 X147.37 Y186.13 F3000
G0 Z2.97 F180
G1 X149.46 Y184.04 F1200
G0 Z6.12 F180
G0 X156.65 Y184.04 F3000
G0 Z2.97 F180
G1 X157.79 Y186.13 F1200
G0 Z6.12 F180
G0 X160.45 Y174.74 F3000
G0 Z2.97 F180
G1 X160.64 Y174.65 F1200
G1 X160.73 Y174.28 F1200
G1 X160.45 Y173.90 F1200
G1 X159.89 Y173.53 F1200
G0 Z6.12 F180
G0 X159.62 Y173.07 F3000
G0 Z2.97 F180
G1 X160.08 Y172.79 F1200
G1 X160.36 Y172.79 F1200
G1 X160.54 Y172.88 F1200
G1 X160.64 Y173.16 F1200
G0 Z6.12 F180
G0 X160.64 Y173.16 F3000
G0 Z2.97 F180
G1 X160.54 Y172.97 F1200
G1 X160.36 Y172.88 F1200
G1 X160.08 Y172.88 F1200
G1 X159.62 Y173.07 F1200
G1 X159.43 Y173.07 F1200
G1 X159.34 Y172.97 F1200
G0 Z6.12 F180
G0 X159.24 Y172.79 F3000
G0 Z2.97 F180
G1 X159.62 Y173.35 F1200
G1 X160.73 Y174.09 F1200
G1 X160.82 Y174.46 F1200
G1 X160.73 Y174.65 F1200
G1 X160.17 Y174.74 F1200
G1 X159.80 Y174.55 F1200
G1 X159.71 Y174.28 F1200
G1 X159.80 Y174.18 F1200
G1 X159.89 Y174.28 F1200
G1 X159.80 Y174.37 F1200
G0 Z6.12 F180
G0 X162.22 Y174.74 F3000
G0 Z2.97 F180
G1 X162.03 Y174.65 F1200
G1 X161.66 Y174.18 F1200
G1 X161.47 Y173.53 F1200
G1 X161.57 Y172.97 F1200
G1 X161.75 Y172.79 F1200
G0 Z6.12 F180
G0 X161.94 Y172.79 F3000
G0 Z2.97 F180
G1 X162.12 Y172.88 F1200
G1 X162.50 Y173.35 F1200
G1 X162.68 Y174.00 F1200
G1 X162.59 Y174.55 F1200
G1 X162.40 Y174.74 F1200
G0 Z6.12 F180
G0 X162.22 Y174.74 F3000
G0 Z2.97 F180
G1 X161.94 Y174.65 F1200
G1 X161.75 Y174.46 F1200
G1 X161.57 Y174.18 F1200
G1 X161.38 Y173.53 F1200
G1 X161.47 Y172.97 F1200
G1 X161.75 Y172.79 F1200
G1 X162.22 Y172.88 F1200
G1 X162.40 Y173.07 F1200
G1 X162.59 Y173.35 F1200
G1 X162.77 Y174.00 F1200
G1 X162.68 Y174.55 F1200
G1 X162.40 Y174.74 F1200
G1 X162.22 Y174.74 F1200
G0 Z6.12 F180
G0 X149.46 Y167.38 F3000
G0 Z2.97 F180
G1 X147.37 Y165.29 F1200
G0 Z6.12 F180
G0 X147.37 Y158.10 F3000
G0 Z2.97 F180
G1 X149.46 Y156.96 F1200
G0 Z6.12 F180
G0 X134.69 Y151.72 F3000
G0 Z2.97 F180
G1 X134.10 Y149.78 F1200
G1 X133.76 Y149.02 F1200
G1 X133.59 Y148.93 F1200
G1 X133.51 Y149.02 F1200
G1 X133.51 Y149.19 F1200
G1 X133.76 Y149.69 F1200
G1 X134.02 Y149.95 F1200
G1 X134.69 Y150.37 F1200
G0 Z6.12 F180
G0 X134.52 Y151.13 F3000
G0 Z2.97 F180
G1 X134.35 Y150.62 F1200
G1 X134.10 Y150.20 F1200
G1 X133.93 Y150.03 F1200
G1 X133.59 Y149.95 F1200
G1 X133.43 Y150.20 F1200
G1 X133.43 Y150.37 F1200
G1 X133.68 Y151.47 F1200
G1 X133.59 Y151.64 F1200
G1 X133.43 Y151.72 F1200
G1 X133.17 Y151.64 F1200
G1 X133.09 Y151.47 F1200
G1 X133.17 Y151.22 F1200
G1 X133.34 Y151.13 F1200
G0 Z6.12 F180
G0 X132.92 Y150.37 F3000
G0 Z2.97 F180
G1 X132.66 Y150.03 F1200
G1 X132.41 Y149.95 F1200
G1 X132.33 Y150.03 F1200
G1 X132.58 Y151.47 F1200
G1 X132.50 Y151.64 F1200
G1 X132.33 Y151.72 F1200
G1 X132.16 Y151.72 F1200
G1 X131.90 Y151.55 F1200
G1 X131.48 Y150.54 F1200
G0 Z6.12 F180
G0 X131.31 Y149.95 F3000
G0 Z2.97 F180
G1 X131.65 Y151.30 F1200
G1 X131.57 Y151.64 F1200
G1 X131.40 Y151.72 F1200
G1 X131.14 Y151.64 F1200
G1 X131.06 Y151.47 F1200
G1 X131.14 Y151.22 F1200
G1 X131.31 Y151.13 F1200
G0 Z6.12 F180
G0 X131.06 Y151.72 F3000
G0 Z2.97 F180
G1 X130.64 Y151.38 F1200
G1 X130.38 Y151.05 F1200
G1 X129.88 Y149.95 F1200
G0 Z6.12 F180
G0 X129.88 Y149.95 F3000
G0 Z2.97 F180
G1 X130.05 Y151.72 F1200
G0 Z6.12 F180
G0 X130.05 Y151.72 F3000
G0 Z2.97 F180
G1 X129.20 Y149.95 F1200
G0 Z6.12 F180
G0 X129.20 Y149.95 F3000
G0 Z2.97 F180
G1 X129.29 Y151.47 F1200
G1 X129.20 Y151.64 F1200
G1 X129.03 Y151.72 F1200
G1 X128.78 Y151.64 F1200
G1 X128.70 Y151.47 F1200
G1 X128.78 Y151.22 F1200
G1 X128.95 Y151.13 F1200
G0 Z6.12 F180
G0 X128.44 Y150.37 F3000
G0 Z2.97 F180
G1 X128.02 Y150.62 F1200
G1 X127.68 Y151.05 F1200
G1 X127.60 Y151.55 F1200
G1 X127.77 Y151.72 F1200
G1 X127.94 Y151.72 F1200
G1 X128.19 Y151.55 F1200
G1 X128.27 Y150.96 F1200
G1 X128.19 Y150.62 F1200
G1 X127.77 Y150.03 F1200
G1 X127.34 Y149.95 F1200
G1 X127.09 Y150.12 F1200
G1 X127.01 Y150.71 F1200
G1 X127.09 Y151.05 F1200
G1 X127.51 Y151.64 F1200
G1 X127.77 Y151.72 F1200
G0 Z6.12 F180
G0 X126.67 Y150.20 F3000
G0 Z2.97 F180
G1 X126.50 Y150.03 F1200
G1 X126.08 Y149.95 F1200
G1 X125.40 Y150.29 F1200
G1 X125.23 Y150.29 F1200
G1 X125.15 Y150.20 F1200
G1 X125.15 Y150.03 F1200
G1 X125.23 Y149.95 F1200
G1 X125.40 Y149.95 F1200
G1 X125.74 Y150.20 F1200
G1 X125.91 Y150.62 F1200
G1 X126.08 Y151.47 F1200
G1 X126.25 Y151.72 F1200
G1 X126.41 Y151.72 F1200
G1 X126.50 Y151.30 F1200
G1 X126.41 Y151.13 F1200
G1 X125.99 Y150.79 F1200
G1 X125.49 Y150.71 F1200
G0 Z6.12 F180
G0 X123.37 Y150.54 F3000
G0 Z2.97 F180
G1 X123.46 Y150.20 F1200
G1 X123.63 Y150.03 F1200
G1 X124.22 Y149.95 F1200
G1 X124.47 Y150.03 F1200
G1 X124.73 Y150.37 F1200
G1 X124.81 Y151.30 F1200
G1 X124.64 Y151.05 F1200
G1 X124.05 Y150.96 F1200
G1 X123.88 Y151.05 F1200
G1 X123.80 Y151.22 F1200
G1 X123.80 Y151.47 F1200
G1 X123.97 Y151.72 F1200
G1 X124.13 Y151.64 F1200
G1 X123.97 Y150.79 F1200
G1 X123.71 Y150.37 F1200
G1 X123.21 Y149.95 F1200
G0 Z6.12 F180
G0 X121.60 Y150.37 F3000
G0 Z2.97 F180
G1 X121.35 Y150.03 F1200
G1 X121.09 Y149.95 F1200
G1 X120.93 Y150.20 F1200
G1 X120.93 Y150.79 F1200
G1 X120.84 Y150.96 F1200
G0 Z6.12 F180
G0 X120.67 Y150.96 F3000
G0 Z2.97 F180
G1 X121.01 Y151.05 F1200
G1 X121.35 Y151.47 F1200
G1 X121.69 Y151.72 F1200
G1 X121.85 Y151.64 F1200
G1 X121.85 Y151.47 F1200
G0 Z6.12 F180
G0 X120.42 Y151.13 F3000
G0 Z2.97 F180
G1 X120.25 Y151.22 F1200
G1 X120.16 Y151.47 F1200
G1 X120.25 Y151.64 F1200
G1 X120.50 Y151.72 F1200
G1 X120.67 Y151.64 F1200
G1 X120.76 Y151.47 F1200
G1 X120.50 Y150.46 F1200
G1 X120.16 Y149.95 F1200
G1 X120.00 Y149.95 F1200
G1 X119.91 Y150.03 F1200
G1 X119.91 Y150.20 F1200
G0 Z6.12 F180
G0 X119.74 Y150.37 F3000
G0 Z2.97 F180
G1 X119.32 Y150.62 F1200
G1 X118.98 Y151.05 F1200
G1 X118.90 Y151.55 F1200
G1 X119.07 Y151.72 F1200
G1 X119.24 Y151.72 F1200
G1 X119.49 Y151.55 F1200
G1 X119.57 Y150.96 F1200
G1 X119.49 Y150.62 F1200
G1 X119.07 Y150.03 F1200
G1 X118.64 Y149.95 F1200
G1 X118.39 Y150.12 F1200
G1 X118.31 Y150.71 F1200
G1 X118.39 Y151.05 F1200
G1 X118.81 Y151.64 F1200
G1 X119.07 Y151.72 F1200
G0 Z6.12 F180
G0 X117.88 Y150.46 F3000
G0 Z2.97 F180
G1 X117.46 Y150.71 F1200
G1 X117.12 Y151.13 F1200
G1 X117.04 Y151.55 F1200
G1 X117.21 Y151.72 F1200
G1 X117.63 Y151.64 F1200
G1 X117.80 Y151.30 F1200
G1 X117.72 Y150.54 F1200
G1 X117.55 Y150.20 F1200
G1 X117.38 Y150.03 F1200
G1 X116.87 Y149.95 F1200
G1 X116.62 Y150.03 F1200
G1 X116.28 Y150.29 F1200
G1 X116.11 Y150.29 F1200
G1 X116.03 Y150.20 F1200
G1 X116.03 Y150.03 F1200
G1 X116.11 Y149.95 F1200
G1 X116.28 Y149.95 F1200
G1 X116.62 Y150.20 F1200
G1 X116.79 Y150.62 F1200
G1 X116.96 Y151.47 F1200
G1 X117.04 Y151.64 F1200
G1 X117.21 Y151.72 F1200
G0 Z6.12 F180
G0 X115.86 Y150.37 F3000
G0 Z2.97 F180
G1 X115.52 Y150.79 F1200
G1 X115.35 Y151.22 F1200
G1 X115.35 Y151.47 F1200
G1 X115.52 Y151.72 F1200
G1 X115.69 Y151.72 F1200
G1 X115.86 Y151.47 F1200
G1 X115.77 Y150.79 F1200
G1 X115.60 Y150.37 F1200
G1 X115.35 Y150.03 F1200
G1 X115.18 Y149.95 F1200
G1 X114.84 Y150.03 F1200
G1 X114.76 Y150.37 F1200
G1 X114.84 Y150.46 F1200
G1 X115.18 Y150.37 F1200
G0 Z6.12 F180
G0 X114.84 Y151.72 F3000
G0 Z2.97 F180
G1 X114.68 Y151.64 F1200
G1 X114.17 Y151.05 F1200
G1 X113.66 Y149.95 F1200
G0 Z6.12 F180
G0 X113.66 Y149.95 F3000
G0 Z2.97 F180
G1 X113.83 Y151.72 F1200
G0 Z6.12 F180
G0 X113.83 Y151.72 F3000
G0 Z2.97 F180
G1 X112.99 Y149.95 F1200
G0 Z6.12 F180
G0 X112.99 Y149.95 F3000
G0 Z2.97 F180
G1 X113.07 Y151.47 F1200
G1 X112.99 Y151.64 F1200
G1 X112.82 Y151.72 F1200
G1 X112.56 Y151.64 F1200
G1 X112.48 Y151.47 F1200
G1 X112.56 Y151.22 F1200
G1 X112.73 Y151.13 F1200
G0 Z6.12 F180
G0 X121.98 Y158.58 F3000
G0 Z2.97 F180
G1 X122.07 Y158.67 F1200
G1 X121.98 Y158.76 F1200
G1 X121.88 Y158.58 F1200
G1 X122.07 Y158.30 F1200
G1 X122.63 Y158.21 F1200
G1 X122.91 Y158.30 F1200
G1 X123.09 Y158.48 F1200
G1 X123.18 Y158.76 F1200
G1 X123.18 Y159.04 F1200
G1 X123.00 Y159.32 F1200
G1 X122.44 Y159.41 F1200
G1 X122.07 Y159.23 F1200
G0 Z6.12 F180
G0 X122.07 Y159.23 F3000
G0 Z2.97 F180
G1 X122.53 Y160.16 F1200
G0 Z6.12 F180
G0 X122.53 Y160.16 F3000
G0 Z2.97 F180
G1 X123.46 Y160.16 F1200
G0 Z6.12 F180
G0 X123.46 Y160.16 F3000
G0 Z2.97 F180
G1 X122.53 Y160.06 F1200
G0 Z6.12 F180
G0 X122.72 Y159.41 F3000
G0 Z2.97 F180
G1 X123.00 Y159.23 F1200
G1 X123.09 Y159.04 F1200
G1 X123.09 Y158.76 F1200
G1 X123.00 Y158.48 F1200
G1 X122.63 Y158.21 F1200
G0 Z6.12 F180
G0 X124.30 Y158.21 F3000
G0 Z2.97 F180
G1 X124.11 Y158.39 F1200
G1 X124.02 Y158.95 F1200
G1 X124.21 Y159.60 F1200
G1 X124.58 Y160.06 F1200
G1 X124.76 Y160.16 F1200
G0 Z6.12 F180
G0 X124.76 Y160.16 F3000
G0 Z2.97 F180
G1 X124.49 Y160.06 F1200
G1 X124.30 Y159.88 F1200
G1 X124.11 Y159.60 F1200
G1 X123.93 Y158.95 F1200
G1 X124.02 Y158.39 F1200
G1 X124.30 Y158.21 F1200
G1 X124.76 Y158.30 F1200
G1 X124.95 Y158.48 F1200
G1 X125.14 Y158.76 F1200
G1 X125.32 Y159.41 F1200
G1 X125.23 Y159.97 F1200
G1 X124.95 Y160.16 F1200
G1 X124.76 Y160.16 F1200
G0 Z6.12 F180
G0 X124.95 Y160.16 F3000
G0 Z2.97 F180
G1 X125.14 Y159.97 F1200
G1 X125.23 Y159.41 F1200
G1 X125.04 Y158.76 F1200
G1 X124.67 Y158.30 F1200
G1 X124.49 Y158.21 F1200
G0 Z6.12 F180
G0 X147.37 Y138.21 F3000
G0 Z2.97 F180
G1 X149.46 Y136.13 F1200
G0 Z6.12 F180
G0 X149.46 Y119.46 F3000
G0 Z2.97 F180
G1 X147.37 Y117.37 F1200
G0 Z6.12 F180
G0 X134.31 Y112.14 F3000
G0 Z2.97 F180
G1 X133.72 Y110.20 F1200
G1 X133.38 Y109.44 F1200
G1 X133.21 Y109.35 F1200
G1 X133.13 Y109.44 F1200
G1 X133.13 Y109.60 F1200
G1 X133.38 Y110.11 F1200
G1 X133.64 Y110.36 F1200
G1 X134.31 Y110.79 F1200
G0 Z6.12 F180
G0 X134.14 Y111.55 F3000
G0 Z2.97 F180
G1 X133.97 Y111.04 F1200
G1 X133.72 Y110.62 F1200
G1 X133.55 Y110.45 F1200
G1 X133.21 Y110.36 F1200
G1 X133.04 Y110.62 F1200
G1 X133.04 Y110.79 F1200
G1 X133.30 Y111.89 F1200
G1 X133.21 Y112.05 F1200
G1 X133.04 Y112.14 F1200
G1 X132.79 Y112.05 F1200
G1 X132.71 Y111.89 F1200
G1 X132.79 Y111.63 F1200
G1 X132.96 Y111.55 F1200
G0 Z6.12 F180
G0 X132.37 Y110.79 F3000
G0 Z2.97 F180
G1 X132.12 Y110.45 F1200
G1 X131.95 Y110.36 F1200
G1 X131.78 Y110.45 F1200
G1 X131.69 Y110.62 F1200
G1 X131.69 Y111.04 F1200
G1 X131.52 Y111.29 F1200
G1 X132.03 Y111.21 F1200
G1 X132.20 Y111.29 F1200
G1 X132.37 Y111.55 F1200
G1 X132.37 Y111.80 F1200
G1 X132.20 Y112.05 F1200
G1 X132.03 Y112.14 F1200
G1 X131.69 Y112.14 F1200
G1 X131.27 Y111.97 F1200
G1 X130.93 Y111.55 F1200
G1 X130.76 Y111.13 F1200
G1 X130.68 Y110.45 F1200
G1 X130.85 Y110.36 F1200
G1 X131.02 Y110.45 F1200
G1 X131.36 Y110.87 F1200
G1 X131.61 Y111.63 F1200
G1 X131.61 Y111.89 F1200
G1 X131.52 Y111.97 F1200
G0 Z6.12 F180
G0 X130.34 Y110.79 F3000
G0 Z2.97 F180
G1 X129.92 Y111.04 F1200
G1 X129.58 Y111.46 F1200
G1 X129.50 Y111.97 F1200
G1 X129.67 Y112.14 F1200
G1 X129.84 Y112.14 F1200
G1 X130.09 Y111.97 F1200
G1 X130.17 Y111.38 F1200
G1 X130.09 Y111.04 F1200
G1 X129.67 Y110.45 F1200
G1 X129.24 Y110.36 F1200
G1 X128.99 Y110.53 F1200
G1 X128.91 Y111.13 F1200
G1 X128.99 Y111.46 F1200
G1 X129.41 Y112.05 F1200
G1 X129.67 Y112.14 F1200
G0 Z6.12 F180
G0 X126.88 Y110.96 F3000
G0 Z2.97 F180
G1 X126.96 Y110.62 F1200
G1 X127.13 Y110.45 F1200
G1 X127.72 Y110.36 F1200
G1 X127.98 Y110.45 F1200
G1 X128.23 Y110.79 F1200
G1 X128.32 Y111.72 F1200
G1 X128.15 Y111.46 F1200
G1 X127.89 Y111.38 F1200
G1 X127.56 Y111.38 F1200
G1 X127.39 Y111.46 F1200
G1 X127.30 Y111.89 F1200
G1 X127.47 Y112.14 F1200
G1 X127.64 Y112.05 F1200
G1 X127.47 Y111.21 F1200
G1 X127.22 Y110.79 F1200
G1 X126.71 Y110.36 F1200
G0 Z6.12 F180
G0 X125.11 Y110.79 F3000
G0 Z2.97 F180
G1 X124.60 Y110.53 F1200
G1 X124.09 Y110.11 F1200
G1 X123.84 Y109.60 F1200
G1 X123.84 Y109.44 F1200
G1 X123.92 Y109.35 F1200
G1 X124.09 Y109.44 F1200
G1 X124.35 Y109.86 F1200
G1 X124.43 Y110.36 F1200
G1 X124.35 Y110.53 F1200
G1 X124.09 Y110.70 F1200
G1 X123.84 Y110.70 F1200
G1 X123.75 Y110.62 F1200
G1 X123.75 Y110.45 F1200
G1 X123.84 Y110.36 F1200
G1 X124.26 Y110.45 F1200
G1 X124.85 Y110.96 F1200
G1 X125.11 Y111.55 F1200
G1 X125.11 Y111.89 F1200
G1 X125.02 Y112.05 F1200
G1 X124.85 Y112.14 F1200
G1 X124.35 Y112.05 F1200
G1 X124.18 Y111.89 F1200
G1 X124.09 Y111.46 F1200
G1 X124.18 Y111.29 F1200
G1 X124.51 Y111.38 F1200
G1 X124.68 Y111.63 F1200
G0 Z6.12 F180
G0 X122.23 Y111.89 F3000
G0 Z2.97 F180
G1 X122.23 Y112.05 F1200
G1 X122.07 Y112.14 F1200
G1 X121.90 Y112.05 F1200
G1 X121.39 Y111.46 F1200
G1 X121.05 Y111.38 F1200
G0 Z6.12 F180
G0 X121.22 Y111.38 F3000
G0 Z2.97 F180
G1 X121.31 Y111.21 F1200
G1 X121.31 Y110.62 F1200
G1 X121.47 Y110.36 F1200
G1 X121.73 Y110.45 F1200
G1 X121.98 Y110.79 F1200
G0 Z6.12 F180
G0 X120.80 Y111.55 F3000
G0 Z2.97 F180
G1 X120.63 Y111.63 F1200
G1 X120.54 Y111.89 F1200
G1 X120.63 Y112.05 F1200
G1 X120.88 Y112.14 F1200
G1 X121.05 Y112.05 F1200
G1 X121.14 Y111.89 F1200
G1 X120.88 Y110.87 F1200
G1 X120.54 Y110.36 F1200
G1 X120.38 Y110.36 F1200
G1 X120.29 Y110.45 F1200
G1 X120.29 Y110.62 F1200
G0 Z6.12 F180
G0 X120.12 Y110.79 F3000
G0 Z2.97 F180
G1 X119.70 Y111.04 F1200
G1 X119.36 Y111.46 F1200
G1 X119.28 Y111.97 F1200
G1 X119.45 Y112.14 F1200
G1 X119.62 Y112.14 F1200
G1 X119.87 Y111.97 F1200
G1 X119.95 Y111.38 F1200
G1 X119.87 Y111.04 F1200
G1 X119.45 Y110.45 F1200
G1 X119.02 Y110.36 F1200
G1 X118.77 Y110.53 F1200
G1 X118.69 Y111.13 F1200
G1 X118.77 Y111.46 F1200
G1 X119.19 Y112.05 F1200
G1 X119.45 Y112.14 F1200
G0 Z6.12 F180
G0 X118.26 Y110.87 F3000
G0 Z2.97 F180
G1 X117.84 Y111.13 F1200
G1 X117.50 Y111.55 F1200
G1 X117.42 Y111.97 F1200
G1 X117.59 Y112.14 F1200
G1 X118.01 Y112.05 F1200
G1 X118.18 Y111.72 F1200
G1 X118.10 Y110.96 F1200
G1 X117.93 Y110.62 F1200
G1 X117.76 Y110.45 F1200
G1 X117.25 Y110.36 F1200
G1 X117.00 Y110.45 F1200
G1 X116.66 Y110.70 F1200
G1 X116.49 Y110.70 F1200
G1 X116.41 Y110.62 F1200
G1 X116.41 Y110.45 F1200
G1 X116.49 Y110.36 F1200
G1 X116.66 Y110.36 F1200
G1 X117.00 Y110.62 F1200
G1 X117.17 Y111.04 F1200
G1 X117.34 Y111.89 F1200
G1 X117.42 Y112.05 F1200
G1 X117.59 Y112.14 F1200
G0 Z6.12 F180
G0 X116.24 Y110.79 F3000
G0 Z2.97 F180
G1 X115.90 Y111.21 F1200
G1 X115.73 Y111.63 F1200
G1 X115.73 Y111.89 F1200
G1 X115.90 Y112.14 F1200
G1 X116.07 Y112.14 F1200
G1 X116.24 Y111.89 F1200
G1 X116.15 Y111.21 F1200
G1 X115.90 Y110.62 F1200
G1 X115.73 Y110.45 F1200
G1 X115.56 Y110.36 F1200
G1 X115.22 Y110.45 F1200
G1 X115.14 Y110.79 F1200
G1 X115.22 Y110.87 F1200
G1 X115.56 Y110.79 F1200
G0 Z6.12 F180
G0 X115.22 Y112.14 F3000
G0 Z2.97 F180
G1 X115.06 Y112.05 F1200
G1 X114.55 Y111.46 F1200
G1 X114.04 Y110.36 F1200
G0 Z6.12 F180
G0 X114.04 Y110.36 F3000
G0 Z2.97 F180
G1 X114.21 Y112.14 F1200
G0 Z6.12 F180
G0 X114.21 Y112.14 F3000
G0 Z2.97 F180
G1 X113.37 Y110.36 F1200
G0 Z6.12 F180
G0 X113.37 Y110.36 F3000
G0 Z2.97 F180
G1 X113.45 Y111.89 F1200
G1 X113.37 Y112.05 F1200
G1 X113.20 Y112.14 F1200
G1 X112.94 Y112.05 F1200
G1 X112.86 Y111.89 F1200
G1 X112.94 Y111.63 F1200
G1 X113.11 Y111.55 F1200
G0 Z6.12 F180
G0 X112.50 Y79.59 F3000
G0 Z2.97 F180
G1 X112.05 Y79.44 F1200
G1 X111.75 Y78.99 F1200
G1 X111.60 Y78.24 F1200
G1 X111.60 Y77.79 F1200
G1 X111.75 Y77.04 F1200
G1 X112.05 Y76.59 F1200
G1 X112.50 Y76.44 F1200
G1 X112.80 Y76.44 F1200
G1 X113.25 Y76.59 F1200
G1 X113.55 Y77.04 F1200
G1 X113.70 Y77.79 F1200
G1 X113.70 Y78.24 F1200
G1 X113.55 Y78.99 F1200
G1 X113.25 Y79.44 F1200
G1 X112.80 Y79.59 F1200
G1 X112.50 Y79.59 F1200
G0 Z6.12 F180
G0 X110.71 Y76.44 F3000
G0 Z2.97 F180
G1 X108.61 Y76.44 F1200
G1 X110.11 Y77.94 F1200
G1 X110.56 Y78.69 F1200
G1 X110.56 Y78.99 F1200
G1 X110.26 Y79.44 F1200
G1 X109.96 Y79.59 F1200
G1 X109.36 Y79.59 F1200
G1 X108.91 Y79.29 F1200
G1 X108.76 Y78.84 F1200
G0 Z6.12 F180
G0 X105.31 Y79.59 F3000
G0 Z2.97 F180
G1 X103.22 Y77.49 F1200
G0 Z6.12 F180
G0 X103.22 Y76.44 F3000
G0 Z2.97 F180
G1 X103.22 Y79.59 F1200
G0 Z6.12 F180
G0 X102.32 Y79.59 F3000
G0 Z2.97 F180
G1 X100.37 Y79.59 F1200
G0 Z6.12 F180
G0 X100.37 Y79.59 F3000
G0 Z2.97 F180
G1 X100.37 Y76.44 F1200
G0 Z6.12 F180
G0 X100.37 Y76.44 F3000
G0 Z2.97 F180
G1 X102.32 Y76.44 F1200
G0 Z6.12 F180
G0 X101.57 Y78.09 F3000
G0 Z2.97 F180
G1 X100.37 Y78.09 F1200
G0 Z6.12 F180
G0 X99.62 Y76.44 F3000
G0 Z2.97 F180
G1 X97.83 Y76.44 F1200
G0 Z6.12 F180
G0 X97.83 Y76.44 F3000
G0 Z2.97 F180
G1 X97.83 Y79.59 F1200
G0 Z6.12 F180
G0 X95.88 Y79.59 F3000
G0 Z2.97 F180
G1 X97.08 Y76.44 F1200
G0 Z6.12 F180
G0 X96.63 Y77.49 F3000
G0 Z2.97 F180
G1 X95.13 Y77.49 F1200
G0 Z6.12 F180
G0 X94.68 Y76.44 F3000
G0 Z2.97 F180
G1 X95.88 Y79.59 F1200
G0 Z6.12 F180
G0 X94.23 Y79.59 F3000
G0 Z2.97 F180
G1 X93.48 Y76.44 F1200
G0 Z6.12 F180
G0 X93.48 Y76.44 F3000
G0 Z2.97 F180
G1 X92.74 Y79.59 F1200
G0 Z6.12 F180
G0 X92.74 Y79.59 F3000
G0 Z2.97 F180
G1 X91.99 Y76.44 F1200
G0 Z6.12 F180
G0 X91.99 Y76.44 F3000
G0 Z2.97 F180
G1 X91.24 Y79.59 F1200
G0 Z6.12 F180
G0 X99.14 Y71.09 F3000
G0 Z2.97 F180
G1 X99.20 Y70.85 F1200
G1 X99.02 Y70.32 F1200
G1 X98.78 Y70.03 F1200
G1 X98.66 Y69.97 F1200
G1 X98.55 Y70.03 F1200
G1 X98.72 Y70.80 F1200
G1 X98.96 Y71.09 F1200
G1 X99.26 Y71.21 F1200
G1 X99.49 Y71.21 F1200
G1 X99.73 Y70.97 F1200
G1 X99.73 Y70.80 F1200
G1 X99.61 Y70.62 F1200
G1 X99.49 Y70.56 F1200
G1 X99.14 Y70.62 F1200
G1 X99.26 Y70.44 F1200
G1 X99.31 Y70.03 F1200
G1 X99.43 Y69.97 F1200
G1 X99.55 Y70.03 F1200
G1 X99.73 Y70.26 F1200
G0 Z6.12 F180
G0 X100.14 Y70.80 F3000
G0 Z2.97 F180
G1 X100.02 Y70.85 F1200
G1 X99.97 Y71.03 F1200
G1 X100.02 Y71.15 F1200
G1 X100.20 Y71.21 F1200
G1 X100.38 Y71.03 F1200
G1 X100.20 Y70.26 F1200
G1 X100.32 Y69.97 F1200
G1 X100.56 Y70.03 F1200
G1 X100.67 Y70.15 F1200
G1 X100.97 Y70.80 F1200
G0 Z6.12 F180
G0 X101.09 Y71.21 F3000
G0 Z2.97 F180
G1 X100.67 Y69.85 F1200
G1 X100.44 Y69.32 F1200
G1 X100.32 Y69.26 F1200
G1 X100.26 Y69.44 F1200
G1 X100.44 Y69.79 F1200
G1 X101.09 Y70.26 F1200
G0 Z6.12 F180
G0 X101.32 Y70.38 F3000
G0 Z2.97 F180
G1 X101.38 Y70.15 F1200
G1 X101.50 Y70.03 F1200
G1 X101.92 Y69.97 F1200
G1 X102.15 Y70.09 F1200
G1 X102.21 Y70.32 F1200
G1 X102.15 Y70.44 F1200
G1 X101.68 Y70.91 F1200
G1 X101.74 Y71.15 F1200
G1 X101.86 Y71.21 F1200
G1 X101.92 Y70.97 F1200
G1 X101.74 Y70.56 F1200
G1 X101.44 Y70.15 F1200
G1 X101.21 Y69.97 F1200
G0 Z6.12 F180
G0 X102.68 Y70.80 F3000
G0 Z2.97 F180
G1 X102.57 Y70.85 F1200
G1 X102.51 Y71.03 F1200
G1 X102.57 Y71.15 F1200
G1 X102.74 Y71.21 F1200
G1 X102.92 Y71.03 F1200
G1 X102.74 Y70.15 F1200
G1 X102.80 Y70.03 F1200
G1 X103.04 Y69.97 F1200
G1 X103.22 Y70.09 F1200
G1 X103.33 Y70.32 F1200
G1 X103.63 Y71.21 F1200
G0 Z6.12 F180
G0 X103.51 Y70.80 F3000
G0 Z2.97 F180
G1 X103.39 Y70.03 F1200
G1 X103.45 Y69.97 F1200
G1 X103.63 Y70.03 F1200
G1 X103.81 Y70.26 F1200
G0 Z6.12 F180
G0 X104.10 Y69.97 F3000
G0 Z2.97 F180
G1 X104.34 Y70.91 F1200
G1 X104.28 Y71.15 F1200
G1 X104.16 Y71.21 F1200
G1 X103.99 Y71.15 F1200
G1 X103.93 Y71.03 F1200
G1 X103.99 Y70.85 F1200
G1 X104.10 Y70.80 F1200
G0 Z6.12 F180
G0 X104.22 Y70.38 F3000
G0 Z2.97 F180
G1 X104.52 Y71.09 F1200
G1 X104.81 Y71.21 F1200
G1 X104.99 Y71.03 F1200
G1 X104.81 Y70.03 F1200
G1 X104.87 Y69.97 F1200
G1 X105.05 Y70.03 F1200
G1 X105.23 Y70.26 F1200
G0 Z6.12 F180
G0 X106.23 Y70.26 F3000
G0 Z2.97 F180
G1 X106.05 Y70.03 F1200
G1 X105.88 Y69.97 F1200
G1 X105.52 Y70.03 F1200
G1 X105.40 Y70.20 F1200
G1 X105.40 Y70.38 F1200
G1 X105.52 Y70.56 F1200
G1 X105.88 Y70.62 F1200
G1 X105.70 Y70.68 F1200
G1 X105.58 Y70.85 F1200
G1 X105.64 Y71.15 F1200
G1 X106.05 Y71.21 F1200
G1 X106.23 Y71.15 F1200
G1 X106.29 Y70.91 F1200
G1 X106.23 Y70.85 F1200
G1 X106.11 Y70.85 F1200
G1 X106.05 Y70.97 F1200
G0 Z6.12 F180
G0 X106.82 Y70.80 F3000
G0 Z2.97 F180
G1 X106.70 Y70.85 F1200
G1 X106.65 Y71.03 F1200
G1 X106.70 Y71.15 F1200
G1 X106.88 Y71.21 F1200
G1 X107.06 Y71.03 F1200
G1 X106.88 Y70.32 F1200
G1 X106.65 Y69.97 F1200
G1 X106.53 Y69.97 F1200
G1 X106.47 Y70.15 F1200
G0 Z6.12 F180
G0 X107.00 Y70.68 F3000
G0 Z2.97 F180
G1 X107.24 Y70.74 F1200
G1 X107.71 Y71.21 F1200
G1 X107.83 Y71.15 F1200
G1 X107.83 Y71.03 F1200
G0 Z6.12 F180
G0 X107.65 Y70.26 F3000
G0 Z2.97 F180
G1 X107.47 Y70.03 F1200
G1 X107.30 Y69.97 F1200
G1 X107.18 Y70.15 F1200
G1 X107.12 Y70.68 F1200
G0 Z6.12 F180
G0 X109.54 Y71.09 F3000
G0 Z2.97 F180
G1 X109.60 Y70.85 F1200
G1 X109.48 Y70.44 F1200
G1 X109.19 Y70.03 F1200
G1 X109.01 Y69.97 F1200
G1 X108.95 Y70.03 F1200
G1 X109.01 Y70.50 F1200
G1 X109.25 Y70.97 F1200
G1 X109.66 Y71.21 F1200
G1 X109.96 Y71.21 F1200
G1 X110.13 Y71.09 F1200
G1 X110.19 Y70.80 F1200
G1 X110.07 Y70.62 F1200
G1 X109.78 Y70.56 F1200
G1 X109.60 Y70.68 F1200
G0 Z6.12 F180
G0 X110.96 Y71.21 F3000
G0 Z2.97 F180
G1 X110.78 Y71.15 F1200
G1 X110.49 Y70.74 F1200
G1 X110.43 Y70.50 F1200
G1 X110.49 Y70.09 F1200
G1 X110.67 Y69.97 F1200
G1 X110.96 Y70.03 F1200
G1 X111.26 Y70.44 F1200
G1 X111.32 Y70.68 F1200
G1 X111.26 Y71.09 F1200
G1 X110.96 Y71.21 F1200
G1 X110.84 Y71.09 F1200
G1 X110.90 Y70.74 F1200
G1 X111.14 Y70.44 F1200
G1 X111.43 Y70.26 F1200
G0 Z6.12 F180
G0 X111.55 Y70.15 F3000
G0 Z2.97 F180
G1 X111.61 Y69.97 F1200
G1 X111.73 Y69.97 F1200
G1 X111.97 Y70.32 F1200
G1 X112.14 Y71.03 F1200
G1 X111.97 Y71.21 F1200
G1 X111.79 Y71.15 F1200
G1 X111.73 Y71.03 F1200
G1 X111.79 Y70.85 F1200
G1 X111.91 Y70.80 F1200
G0 Z6.12 F180
G0 X112.08 Y70.68 F3000
G0 Z2.97 F180
G1 X112.32 Y70.74 F1200
G1 X112.79 Y71.21 F1200
G1 X112.91 Y71.15 F1200
G1 X112.91 Y71.03 F1200
G0 Z6.12 F180
G0 X112.74 Y70.26 F3000
G0 Z2.97 F180
G1 X112.56 Y70.03 F1200
G1 X112.38 Y69.97 F1200
G1 X112.26 Y70.15 F1200
G1 X112.20 Y70.68 F1200
G0 Z6.12 F180
G0 X112.91 Y69.97 F3000
G0 Z2.97 F180
G1 X113.39 Y70.44 F1200
G1 X113.80 Y71.21 F1200
G1 X113.80 Y69.97 F1200
G1 X113.62 Y70.32 F1200
G1 X113.33 Y70.56 F1200
G1 X113.21 Y70.56 F1200
G1 X113.15 Y70.38 F1200
G1 X113.50 Y70.03 F1200
G1 X113.98 Y69.97 F1200
G0 Z6.12 F180
G0 X115.16 Y70.26 F3000
G0 Z2.97 F180
G1 X114.45 Y69.79 F1200
G1 X114.27 Y69.44 F1200
G1 X114.33 Y69.26 F1200
G1 X114.45 Y69.32 F1200
G1 X114.63 Y69.61 F1200
G1 X114.69 Y69.97 F1200
G1 X114.45 Y70.20 F1200
G1 X114.21 Y70.15 F1200
G1 X114.27 Y69.97 F1200
G1 X114.57 Y70.03 F1200
G1 X114.98 Y70.38 F1200
G1 X115.16 Y70.80 F1200
G1 X115.16 Y71.03 F1200
G1 X114.98 Y71.21 F1200
G1 X114.63 Y71.15 F1200
G1 X114.51 Y71.03 F1200
G1 X114.45 Y70.74 F1200
G1 X114.51 Y70.62 F1200
G1 X114.75 Y70.68 F1200
G1 X114.86 Y70.85 F1200
G0 Z6.12 F180
G0 X116.05 Y71.21 F3000
G0 Z2.97 F180
G1 X115.87 Y71.15 F1200
G1 X115.57 Y70.74 F1200
G1 X115.51 Y70.50 F1200
G1 X115.57 Y70.09 F1200
G1 X115.75 Y69.97 F1200
G1 X116.05 Y70.03 F1200
G1 X116.34 Y70.44 F1200
G1 X116.40 Y70.68 F1200
G1 X116.34 Y71.09 F1200
G1 X116.05 Y71.21 F1200
G1 X115.93 Y71.09 F1200
G1 X115.99 Y70.74 F1200
G1 X116.22 Y70.44 F1200
G1 X116.52 Y70.26 F1200
G0 Z6.12 F180
G0 X117.05 Y69.97 F3000
G0 Z2.97 F180
G1 X117.64 Y71.21 F1200
G0 Z6.12 F180
G0 X117.64 Y71.21 F3000
G0 Z2.97 F180
G1 X117.52 Y69.97 F1200
G0 Z6.12 F180
G0 X117.52 Y69.97 F3000
G0 Z2.97 F180
G1 X117.88 Y70.74 F1200
G1 X118.35 Y71.21 F1200
G0 Z6.12 F180
G0 X118.53 Y70.80 F3000
G0 Z2.97 F180
G1 X118.41 Y70.85 F1200
G1 X118.35 Y71.03 F1200
G1 X118.41 Y71.15 F1200
G1 X118.59 Y71.21 F1200
G1 X118.77 Y71.03 F1200
G1 X118.59 Y70.26 F1200
G1 X118.71 Y69.97 F1200
G1 X118.94 Y70.03 F1200
G1 X119.06 Y70.15 F1200
G1 X119.36 Y70.80 F1200
G0 Z6.12 F180
G0 X119.48 Y71.21 F3000
G0 Z2.97 F180
G1 X119.06 Y69.85 F1200
G1 X118.82 Y69.32 F1200
G1 X118.71 Y69.26 F1200
G1 X118.65 Y69.44 F1200
G1 X118.82 Y69.79 F1200
G1 X119.48 Y70.26 F1200
G0 Z6.12 F180
G0 X117.05 Y69.97 F3000
G0 Z2.97 F180
G1 X117.11 Y71.03 F1200
G1 X116.93 Y71.21 F1200
G1 X116.76 Y71.15 F1200
G1 X116.70 Y71.03 F1200
G1 X116.76 Y70.85 F1200
G1 X116.87 Y70.80 F1200
G0 Z6.12 F180
G0 X116.99 Y76.44 F3000
G0 Z2.97 F180
G1 X118.64 Y78.54 F1200
G0 Z6.12 F180
G0 X116.99 Y78.54 F3000
G0 Z2.97 F180
G1 X118.64 Y76.44 F1200
G0 Z6.12 F180
G0 X121.94 Y77.04 F3000
G0 Z2.97 F180
G1 X122.23 Y76.59 F1200
G1 X122.68 Y76.44 F1200
G1 X123.13 Y76.44 F1200
G1 X123.58 Y76.59 F1200
G1 X123.88 Y76.89 F1200
G1 X124.03 Y77.34 F1200
G1 X124.03 Y77.64 F1200
G1 X123.88 Y78.09 F1200
G1 X123.58 Y78.39 F1200
G1 X123.13 Y78.54 F1200
G1 X122.68 Y78.54 F1200
G1 X122.23 Y78.39 F1200
G1 X122.09 Y78.24 F1200
G1 X122.23 Y79.59 F1200
G1 X123.73 Y79.59 F1200
G0 Z6.12 F180
G0 X125.83 Y79.59 F3000
G0 Z2.97 F180
G1 X125.38 Y79.44 F1200
G1 X125.08 Y78.99 F1200
G1 X124.93 Y78.24 F1200
G1 X124.93 Y77.79 F1200
G1 X125.08 Y77.04 F1200
G1 X125.38 Y76.59 F1200
G1 X125.83 Y76.44 F1200
G1 X126.13 Y76.44 F1200
G1 X126.58 Y76.59 F1200
G1 X126.88 Y77.04 F1200
G1 X127.03 Y77.79 F1200
G1 X127.03 Y78.24 F1200
G1 X126.88 Y78.99 F1200
G1 X126.58 Y79.44 F1200
G1 X126.13 Y79.59 F1200
G1 X125.83 Y79.59 F1200
G0 Z6.12 F180
G0 X139.04 Y88.21 F3000
G0 Z2.97 F180
G1 X139.04 Y58.00 F1200
G0 Z6.12 F180
G0 X139.04 Y65.29 F3000
G0 Z2.97 F180
G1 X188.00 Y65.29 F1200
G0 Z6.12 F180
G0 X188.00 Y73.63 F3000
G0 Z2.97 F180
G1 X78.62 Y73.63 F1200
G0 Z6.12 F180
G0 X82.92 Y63.08 F3000
G0 Z2.97 F180
G1 X82.92 Y62.96 F1200
G1 X83.10 Y62.71 F1200
G1 X83.53 Y62.65 F1200
G1 X83.78 Y62.77 F1200
G1 X83.84 Y63.02 F1200
G1 X83.78 Y63.15 F1200
G1 X83.29 Y63.64 F1200
G1 X83.35 Y63.89 F1200
G1 X83.47 Y63.95 F1200
G1 X83.53 Y63.70 F1200
G1 X83.35 Y63.27 F1200
G1 X83.04 Y62.84 F1200
G1 X82.79 Y62.65 F1200
G0 Z6.12 F180
G0 X84.09 Y62.84 F3000
G0 Z2.97 F180
G1 X84.09 Y62.71 F1200
G1 X84.28 Y62.65 F1200
G1 X84.53 Y63.02 F1200
G1 X84.71 Y63.77 F1200
G1 X84.53 Y63.95 F1200
G1 X84.34 Y63.89 F1200
G1 X84.28 Y63.77 F1200
G1 X84.34 Y63.58 F1200
G1 X84.46 Y63.52 F1200
G0 Z6.12 F180
G0 X84.65 Y63.39 F3000
G0 Z2.97 F180
G1 X84.90 Y63.46 F1200
G1 X85.39 Y63.95 F1200
G1 X85.52 Y63.89 F1200
G1 X85.52 Y63.77 F1200
G0 Z6.12 F180
G0 X85.33 Y62.96 F3000
G0 Z2.97 F180
G1 X85.15 Y62.71 F1200
G1 X84.96 Y62.65 F1200
G1 X84.84 Y62.84 F1200
G1 X84.77 Y63.39 F1200
G0 Z6.12 F180
G0 X85.52 Y62.65 F3000
G0 Z2.97 F180
G1 X86.01 Y63.15 F1200
G1 X86.45 Y63.95 F1200
G1 X86.45 Y62.65 F1200
G1 X86.26 Y63.02 F1200
G1 X85.95 Y63.27 F1200
G1 X85.83 Y63.27 F1200
G1 X85.76 Y63.08 F1200
G1 X86.14 Y62.71 F1200
G1 X86.63 Y62.65 F1200
G0 Z6.12 F180
G0 X87.00 Y63.21 F3000
G0 Z2.97 F180
G1 X87.37 Y63.27 F1200
G1 X87.68 Y63.52 F1200
G1 X87.75 Y63.64 F1200
G1 X87.68 Y63.95 F1200
G1 X87.56 Y63.95 F1200
G1 X87.44 Y63.77 F1200
G1 X87.19 Y62.84 F1200
G1 X86.94 Y62.65 F1200
G1 X86.76 Y62.71 F1200
G1 X86.82 Y62.90 F1200
G1 X87.44 Y62.65 F1200
G1 X87.75 Y62.71 F1200
G1 X87.87 Y62.84 F1200
G0 Z6.12 F180
G0 X87.93 Y62.65 F3000
G0 Z2.97 F180
G1 X88.43 Y63.15 F1200
G1 X88.86 Y63.95 F1200
G1 X88.86 Y62.65 F1200
G1 X88.68 Y63.02 F1200
G1 X88.37 Y63.27 F1200
G1 X88.18 Y63.21 F1200
G1 X88.18 Y63.08 F1200
G1 X88.55 Y62.71 F1200
G1 X89.05 Y62.65 F1200
G0 Z6.12 F180
G0 X90.60 Y62.65 F3000
G0 Z2.97 F180
G1 X90.91 Y63.70 F1200
G0 Z6.12 F180
G0 X90.97 Y63.77 F3000
G0 Z2.97 F180
G1 X90.53 Y63.58 F1200
G0 Z6.12 F180
G0 X90.53 Y63.58 F3000
G0 Z2.97 F180
G1 X91.03 Y63.95 F1200
G0 Z6.12 F180
G0 X91.03 Y63.95 F3000
G0 Z2.97 F180
G1 X90.66 Y62.65 F1200
G0 Z6.12 F180
G0 X91.65 Y62.77 F3000
G0 Z2.97 F180
G1 X91.59 Y62.71 F1200
G1 X91.65 Y62.65 F1200
G1 X91.71 Y62.71 F1200
G0 Z6.12 F180
G0 X91.83 Y63.52 F3000
G0 Z2.97 F180
G1 X91.77 Y63.46 F1200
G1 X91.83 Y63.39 F1200
G1 X91.90 Y63.46 F1200
G1 X91.83 Y63.52 F1200
G0 Z6.12 F180
G0 X92.52 Y63.58 F3000
G0 Z2.97 F180
G1 X92.95 Y63.77 F1200
G0 Z6.12 F180
G0 X92.89 Y63.70 F3000
G0 Z2.97 F180
G1 X92.58 Y62.65 F1200
G0 Z6.12 F180
G0 X92.64 Y62.65 F3000
G0 Z2.97 F180
G1 X93.01 Y63.95 F1200
G0 Z6.12 F180
G0 X93.01 Y63.95 F3000
G0 Z2.97 F180
G1 X92.52 Y63.58 F1200
G0 Z6.12 F180
G0 X78.62 Y58.00 F3000
G0 Z2.97 F180
G1 X78.62 Y88.21 F1200
G0 Z6.12 F180
G0 X78.26 Y89.71 F3000
G0 Z2.97 F180
G1 X78.39 Y90.16 F1200
G1 X78.33 Y90.29 F1200
G1 X78.07 Y90.23 F1200
G1 X77.87 Y89.90 F1200
G0 Z6.12 F180
G0 X77.81 Y89.71 F3000
G0 Z2.97 F180
G1 X77.94 Y90.23 F1200
G1 X77.87 Y90.29 F1200
G1 X77.74 Y90.23 F1200
G1 X77.61 Y90.03 F1200
G0 Z6.12 F180
G0 X77.36 Y90.29 F3000
G0 Z2.97 F180
G1 X76.19 Y90.29 F1200
G0 Z6.12 F180
G0 X75.48 Y90.36 F3000
G0 Z2.97 F180
G1 X75.54 Y89.97 F1200
G1 X75.41 Y89.77 F1200
G1 X75.22 Y89.71 F1200
G0 Z6.12 F180
G0 X74.96 Y89.71 F3000
G0 Z2.97 F180
G1 X74.83 Y89.77 F1200
G1 X74.77 Y90.10 F1200
G1 X74.96 Y90.36 F1200
G1 X75.15 Y90.42 F1200
G0 Z6.12 F180
G0 X75.15 Y90.42 F3000
G0 Z2.97 F180
G1 X74.89 Y90.36 F1200
G1 X74.77 Y90.23 F1200
G1 X74.70 Y90.10 F1200
G1 X74.77 Y89.77 F1200
G1 X75.22 Y89.71 F1200
G1 X75.54 Y89.84 F1200
G1 X75.61 Y90.16 F1200
G1 X75.35 Y90.42 F1200
G0 Z6.12 F180
G0 X75.35 Y90.42 F3000
G0 Z2.97 F180
G1 X75.54 Y90.49 F1200
G1 X75.67 Y90.68 F1200
G1 X75.61 Y91.00 F1200
G1 X75.48 Y91.07 F1200
G0 Z6.12 F180
G0 X75.28 Y91.07 F3000
G0 Z2.97 F180
G1 X75.09 Y91.00 F1200
G1 X74.96 Y90.81 F1200
G1 X75.02 Y90.49 F1200
G1 X75.15 Y90.42 F1200
G1 X75.61 Y90.49 F1200
G1 X75.74 Y90.68 F1200
G1 X75.67 Y91.00 F1200
G1 X75.28 Y91.07 F1200
G0 Z6.12 F180
G0 X75.28 Y91.07 F3000
G0 Z2.97 F180
G1 X75.02 Y90.81 F1200
G1 X75.02 Y90.62 F1200
G1 X75.15 Y90.42 F1200
G0 Z6.12 F180
G0 X74.31 Y90.87 F3000
G0 Z2.97 F180
G1 X74.25 Y90.81 F1200
G1 X74.31 Y90.75 F1200
G1 X74.38 Y90.87 F1200
G1 X74.18 Y91.07 F1200
G1 X73.79 Y91.00 F1200
G1 X73.53 Y90.68 F1200
G1 X73.41 Y90.23 F1200
G1 X73.41 Y89.97 F1200
G1 X73.53 Y89.77 F1200
G1 X73.66 Y89.71 F1200
G1 X74.05 Y89.77 F1200
G1 X74.25 Y90.03 F1200
G1 X74.25 Y90.23 F1200
G1 X74.12 Y90.42 F1200
G1 X73.79 Y90.49 F1200
G1 X73.47 Y90.16 F1200
G0 Z6.12 F180
G0 X73.53 Y89.77 F3000
G0 Z2.97 F180
G1 X73.47 Y90.23 F1200
G1 X73.60 Y90.68 F1200
G1 X73.99 Y91.07 F1200
G0 Z6.12 F180
G0 X74.12 Y90.42 F3000
G0 Z2.97 F180
G1 X74.18 Y90.03 F1200
G1 X73.86 Y89.71 F1200
G0 Z6.12 F180
G0 X72.89 Y90.68 F3000
G0 Z2.97 F180
G1 X72.50 Y90.29 F1200
G1 X72.24 Y89.71 F1200
G0 Z6.12 F180
G0 X72.30 Y89.71 F3000
G0 Z2.97 F180
G1 X72.43 Y90.10 F1200
G1 X72.89 Y90.68 F1200
G1 X73.08 Y91.07 F1200
G0 Z6.12 F180
G0 X73.08 Y91.07 F3000
G0 Z2.97 F180
G1 X72.95 Y90.87 F1200
G1 X72.50 Y91.00 F1200
G1 X72.24 Y90.94 F1200
G0 Z6.12 F180
G0 X72.18 Y90.87 F3000
G0 Z2.97 F180
G1 X72.37 Y91.07 F1200
G1 X72.82 Y90.87 F1200
G0 Z6.12 F180
G0 X72.24 Y91.07 F3000
G0 Z2.97 F180
G1 X72.11 Y90.68 F1200
G0 Z6.12 F180
G0 X71.40 Y91.07 F3000
G0 Z2.97 F180
G1 X71.53 Y91.00 F1200
G1 X71.59 Y90.75 F1200
G1 X71.40 Y90.49 F1200
G1 X71.01 Y90.23 F1200
G0 Z6.12 F180
G0 X70.82 Y89.90 F3000
G0 Z2.97 F180
G1 X71.14 Y89.71 F1200
G1 X71.33 Y89.71 F1200
G1 X71.46 Y89.77 F1200
G1 X71.53 Y89.97 F1200
G0 Z6.12 F180
G0 X71.53 Y89.97 F3000
G0 Z2.97 F180
G1 X71.33 Y89.77 F1200
G1 X70.82 Y89.90 F1200
G1 X70.62 Y89.84 F1200
G0 Z6.12 F180
G0 X70.56 Y89.71 F3000
G0 Z2.97 F180
G1 X70.82 Y90.10 F1200
G1 X71.59 Y90.62 F1200
G1 X71.66 Y90.87 F1200
G1 X71.59 Y91.00 F1200
G1 X71.20 Y91.07 F1200
G1 X70.94 Y90.94 F1200
G1 X70.88 Y90.75 F1200
G1 X70.94 Y90.68 F1200
G1 X71.01 Y90.75 F1200
G1 X70.94 Y90.81 F1200
G0 Z6.12 F180
G0 X69.39 Y90.03 F3000
G0 Z2.97 F180
G1 X69.07 Y90.23 F1200
G1 X68.81 Y90.55 F1200
G1 X68.74 Y90.94 F1200
G1 X68.87 Y91.07 F1200
G1 X69.20 Y90.94 F1200
G1 X69.26 Y90.49 F1200
G1 X69.20 Y90.23 F1200
G1 X68.87 Y89.77 F1200
G1 X68.55 Y89.71 F1200
G1 X68.35 Y89.84 F1200
G1 X68.29 Y90.29 F1200
G1 X68.35 Y90.55 F1200
G1 X68.68 Y91.00 F1200
G1 X68.87 Y91.07 F1200
G0 Z6.12 F180
G0 X66.93 Y90.16 F3000
G0 Z2.97 F180
G1 X66.93 Y90.03 F1200
G1 X67.12 Y89.77 F1200
G1 X67.58 Y89.71 F1200
G1 X67.84 Y89.84 F1200
G1 X67.90 Y90.10 F1200
G1 X67.84 Y90.23 F1200
G1 X67.32 Y90.75 F1200
G1 X67.38 Y91.00 F1200
G1 X67.51 Y91.07 F1200
G1 X67.58 Y90.81 F1200
G1 X67.38 Y90.36 F1200
G1 X67.06 Y89.90 F1200
G1 X66.80 Y89.71 F1200
G0 Z6.12 F180
G0 X66.61 Y90.03 F3000
G0 Z2.97 F180
G1 X66.35 Y90.36 F1200
G1 X66.22 Y90.68 F1200
G1 X66.22 Y90.87 F1200
G1 X66.35 Y91.07 F1200
G1 X66.48 Y91.07 F1200
G1 X66.61 Y90.87 F1200
G1 X66.54 Y90.36 F1200
G1 X66.41 Y90.03 F1200
G1 X66.09 Y89.71 F1200
G1 X65.83 Y89.77 F1200
G1 X65.76 Y89.90 F1200
G1 X65.83 Y90.10 F1200
G1 X66.09 Y90.03 F1200
G0 Z6.12 F180
G0 X64.34 Y90.62 F3000
G0 Z2.97 F180
G1 X64.28 Y90.55 F1200
G1 X64.34 Y90.49 F1200
G1 X64.40 Y90.55 F1200
G1 X64.34 Y90.62 F1200
G0 Z6.12 F180
G0 X64.15 Y89.84 F3000
G0 Z2.97 F180
G1 X64.08 Y89.77 F1200
G1 X64.15 Y89.71 F1200
G1 X64.21 Y89.77 F1200
G0 Z6.12 F180
G0 X63.76 Y90.03 F3000
G0 Z2.97 F180
G1 X63.56 Y89.77 F1200
G1 X63.37 Y89.71 F1200
G1 X62.98 Y89.77 F1200
G1 X62.85 Y89.97 F1200
G1 X62.85 Y90.16 F1200
G1 X62.98 Y90.36 F1200
G1 X63.37 Y90.42 F1200
G1 X63.17 Y90.49 F1200
G1 X63.05 Y90.68 F1200
G1 X63.11 Y91.00 F1200
G1 X63.56 Y91.07 F1200
G1 X63.76 Y91.00 F1200
G1 X63.82 Y90.75 F1200
G1 X63.63 Y90.68 F1200
G1 X63.56 Y90.81 F1200
G0 Z6.12 F180
G0 X62.53 Y89.90 F3000
G0 Z2.97 F180
G1 X61.94 Y89.51 F1200
G1 X61.75 Y89.13 F1200
G1 X61.81 Y88.93 F1200
G1 X62.01 Y89.13 F1200
G1 X62.46 Y90.62 F1200
G1 X62.40 Y91.00 F1200
G1 X62.20 Y91.07 F1200
G1 X62.07 Y91.00 F1200
G1 X62.01 Y90.81 F1200
G1 X62.01 Y90.42 F1200
G1 X62.07 Y90.03 F1200
G1 X62.33 Y89.51 F1200
G0 Z6.12 F180
G0 X61.36 Y90.03 F3000
G0 Z2.97 F180
G1 X61.17 Y89.77 F1200
G1 X60.84 Y89.71 F1200
G1 X60.65 Y89.84 F1200
G1 X60.58 Y90.03 F1200
G1 X60.65 Y90.55 F1200
G1 X60.84 Y90.87 F1200
G1 X61.17 Y91.07 F1200
G1 X61.49 Y91.00 F1200
G1 X61.56 Y90.75 F1200
G1 X61.49 Y90.62 F1200
G1 X61.23 Y90.55 F1200
G1 X61.17 Y90.68 F1200
G0 Z6.12 F180
G0 X60.39 Y90.03 F3000
G0 Z2.97 F180
G1 X60.20 Y89.77 F1200
G1 X60.00 Y89.71 F1200
G1 X59.94 Y89.77 F1200
G1 X60.13 Y90.87 F1200
G1 X59.94 Y91.07 F1200
G1 X59.61 Y90.94 F1200
G1 X59.29 Y90.16 F1200
G0 Z6.12 F180
G0 X59.16 Y89.71 F3000
G0 Z2.97 F180
G1 X59.42 Y90.75 F1200
G1 X59.35 Y91.00 F1200
G1 X59.22 Y91.07 F1200
G1 X59.03 Y91.00 F1200
G1 X58.97 Y90.87 F1200
G1 X59.03 Y90.68 F1200
G1 X59.16 Y90.62 F1200
G0 Z6.12 F180
G0 X58.71 Y89.71 F3000
G0 Z2.97 F180
G1 X58.19 Y89.77 F1200
G1 X57.80 Y90.16 F1200
G1 X57.80 Y90.29 F1200
G1 X57.99 Y90.36 F1200
G1 X58.32 Y90.10 F1200
G1 X58.51 Y89.71 F1200
G1 X58.51 Y91.07 F1200
G1 X58.06 Y90.23 F1200
G1 X57.54 Y89.71 F1200
G0 Z6.12 F180
G0 X57.41 Y90.03 F3000
G0 Z2.97 F180
G1 X57.22 Y89.77 F1200
G1 X57.09 Y89.71 F1200
G1 X56.96 Y89.77 F1200
G1 X56.89 Y90.23 F1200
G1 X56.76 Y90.42 F1200
G1 X57.15 Y90.36 F1200
G1 X57.28 Y90.42 F1200
G1 X57.41 Y90.62 F1200
G1 X57.41 Y90.81 F1200
G1 X57.15 Y91.07 F1200
G1 X56.89 Y91.07 F1200
G1 X56.57 Y90.94 F1200
G1 X56.31 Y90.62 F1200
G1 X56.18 Y90.29 F1200
G1 X56.12 Y89.77 F1200
G1 X56.25 Y89.71 F1200
G1 X56.38 Y89.77 F1200
G1 X56.63 Y90.10 F1200
G1 X56.83 Y90.68 F1200
G1 X56.76 Y90.94 F1200
G0 Z6.12 F180
G0 X55.53 Y90.81 F3000
G0 Z2.97 F180
G1 X55.60 Y90.68 F1200
G1 X55.73 Y90.68 F1200
G1 X55.79 Y90.75 F1200
G1 X55.73 Y91.00 F1200
G1 X55.53 Y91.07 F1200
G1 X55.08 Y91.00 F1200
G1 X55.02 Y90.68 F1200
G1 X55.15 Y90.49 F1200
G1 X55.34 Y90.42 F1200
G1 X54.95 Y90.36 F1200
G1 X54.82 Y90.16 F1200
G1 X54.82 Y89.97 F1200
G1 X54.95 Y89.77 F1200
G1 X55.34 Y89.71 F1200
G1 X55.53 Y89.77 F1200
G1 X55.73 Y90.03 F1200
G0 Z6.12 F180
G0 X54.56 Y89.90 F3000
G0 Z2.97 F180
G1 X54.43 Y89.77 F1200
G1 X54.11 Y89.71 F1200
G1 X53.46 Y89.97 F1200
G1 X53.40 Y89.77 F1200
G1 X53.59 Y89.71 F1200
G1 X53.85 Y89.90 F1200
G1 X54.11 Y90.87 F1200
G1 X54.24 Y91.07 F1200
G1 X54.37 Y91.07 F1200
G1 X54.43 Y90.75 F1200
G1 X54.37 Y90.62 F1200
G1 X54.04 Y90.36 F1200
G1 X53.66 Y90.29 F1200
G0 Z6.12 F180
G0 X53.33 Y90.03 F3000
G0 Z2.97 F180
G1 X53.01 Y90.23 F1200
G1 X52.75 Y90.55 F1200
G1 X52.68 Y90.94 F1200
G1 X52.81 Y91.07 F1200
G1 X53.14 Y90.94 F1200
G1 X53.20 Y90.49 F1200
G1 X53.14 Y90.23 F1200
G1 X52.81 Y89.77 F1200
G1 X52.49 Y89.71 F1200
G1 X52.30 Y89.84 F1200
G1 X52.23 Y90.29 F1200
G1 X52.30 Y90.55 F1200
G1 X52.62 Y91.00 F1200
G1 X52.81 Y91.07 F1200
G0 Z6.12 F180
G0 X52.17 Y91.07 F3000
G0 Z2.97 F180
G1 X52.04 Y91.00 F1200
G1 X51.39 Y91.07 F1200
G1 X51.20 Y91.00 F1200
G1 X51.13 Y90.87 F1200
G1 X51.20 Y90.75 F1200
G1 X51.45 Y90.68 F1200
G0 Z6.12 F180
G0 X51.84 Y91.00 F3000
G0 Z2.97 F180
G1 X51.45 Y89.90 F1200
G1 X51.20 Y89.71 F1200
G1 X50.94 Y89.77 F1200
G1 X50.87 Y89.90 F1200
G1 X50.94 Y90.10 F1200
G1 X51.20 Y90.03 F1200
G0 Z6.12 F180
G0 X48.28 Y90.49 F3000
G0 Z2.97 F180
G1 X48.41 Y90.62 F1200
G1 X48.48 Y90.87 F1200
G1 X48.28 Y91.07 F1200
G0 Z6.12 F180
G0 X47.83 Y90.81 F3000
G0 Z2.97 F180
G1 X47.89 Y90.75 F1200
G1 X47.83 Y90.68 F1200
G1 X47.76 Y90.75 F1200
G1 X47.83 Y90.94 F1200
G1 X48.09 Y91.07 F1200
G1 X48.48 Y91.00 F1200
G1 X48.54 Y90.87 F1200
G1 X48.48 Y90.62 F1200
G1 X48.09 Y90.42 F1200
G0 Z6.12 F180
G0 X48.09 Y90.42 F3000
G0 Z2.97 F180
G1 X48.35 Y90.16 F1200
G1 X48.28 Y89.84 F1200
G1 X48.09 Y89.71 F1200
G0 Z6.12 F180
G0 X47.57 Y89.97 F3000
G0 Z2.97 F180
G1 X47.63 Y90.03 F1200
G1 X47.57 Y90.10 F1200
G1 X47.50 Y89.97 F1200
G1 X47.57 Y89.84 F1200
G1 X47.83 Y89.71 F1200
G1 X48.09 Y89.71 F1200
G1 X48.35 Y89.84 F1200
G1 X48.41 Y90.16 F1200
G1 X48.35 Y90.29 F1200
G1 X47.96 Y90.42 F1200
G0 Z6.12 F180
G0 X47.44 Y93.88 F3000
G0 Z2.97 F180
G1 X47.70 Y94.26 F1200
G1 X48.48 Y94.78 F1200
G1 X48.54 Y95.04 F1200
G1 X48.48 Y95.17 F1200
G1 X48.09 Y95.24 F1200
G1 X47.83 Y95.11 F1200
G1 X47.76 Y94.91 F1200
G1 X47.83 Y94.85 F1200
G1 X47.89 Y94.91 F1200
G1 X47.83 Y94.98 F1200
G0 Z6.12 F180
G0 X48.28 Y95.24 F3000
G0 Z2.97 F180
G1 X48.41 Y95.17 F1200
G1 X48.48 Y94.91 F1200
G1 X48.28 Y94.65 F1200
G1 X47.89 Y94.39 F1200
G0 Z6.12 F180
G0 X47.70 Y94.07 F3000
G0 Z2.97 F180
G1 X48.02 Y93.88 F1200
G1 X48.22 Y93.88 F1200
G1 X48.35 Y93.94 F1200
G1 X48.41 Y94.13 F1200
G0 Z6.12 F180
G0 X48.41 Y94.13 F3000
G0 Z2.97 F180
G1 X48.22 Y93.94 F1200
G1 X47.70 Y94.07 F1200
G1 X47.50 Y94.01 F1200
G0 Z6.12 F180
G0 X51.20 Y94.20 F3000
G0 Z2.97 F180
G1 X50.94 Y94.26 F1200
G1 X50.87 Y94.07 F1200
G1 X50.94 Y93.94 F1200
G1 X51.20 Y93.88 F1200
G1 X51.45 Y94.07 F1200
G1 X51.84 Y95.17 F1200
G0 Z6.12 F180
G0 X52.17 Y95.24 F3000
G0 Z2.97 F180
G1 X52.04 Y95.17 F1200
G1 X51.39 Y95.24 F1200
G1 X51.20 Y95.17 F1200
G1 X51.13 Y95.04 F1200
G1 X51.20 Y94.91 F1200
G1 X51.45 Y94.85 F1200
G0 Z6.12 F180
G0 X51.39 Y94.59 F3000
G0 Z2.97 F180
G1 X51.97 Y94.59 F1200
G0 Z6.12 F180
G0 X52.10 Y93.88 F3000
G0 Z2.97 F180
G1 X52.62 Y94.39 F1200
G1 X53.07 Y95.24 F1200
G1 X53.07 Y93.88 F1200
G1 X52.88 Y94.26 F1200
G1 X52.56 Y94.52 F1200
G1 X52.43 Y94.52 F1200
G1 X52.36 Y94.33 F1200
G1 X52.75 Y93.94 F1200
G1 X53.27 Y93.88 F1200
G0 Z6.12 F180
G0 X54.56 Y94.20 F3000
G0 Z2.97 F180
G1 X54.17 Y94.01 F1200
G1 X53.79 Y93.68 F1200
G1 X53.59 Y93.29 F1200
G1 X53.66 Y93.10 F1200
G1 X53.79 Y93.16 F1200
G1 X53.98 Y93.49 F1200
G1 X54.04 Y93.88 F1200
G1 X53.79 Y94.13 F1200
G1 X53.53 Y94.07 F1200
G1 X53.59 Y93.88 F1200
G1 X53.91 Y93.94 F1200
G1 X54.37 Y94.33 F1200
G1 X54.56 Y94.78 F1200
G1 X54.56 Y95.04 F1200
G1 X54.37 Y95.24 F1200
G1 X53.98 Y95.17 F1200
G1 X53.85 Y95.04 F1200
G1 X53.79 Y94.72 F1200
G1 X53.85 Y94.59 F1200
G1 X54.11 Y94.65 F1200
G1 X54.24 Y94.85 F1200
G0 Z6.12 F180
G0 X55.08 Y94.78 F3000
G0 Z2.97 F180
G1 X54.95 Y94.85 F1200
G1 X54.89 Y95.04 F1200
G1 X54.95 Y95.17 F1200
G1 X55.15 Y95.24 F1200
G1 X55.34 Y95.04 F1200
G1 X55.15 Y94.20 F1200
G1 X55.27 Y93.88 F1200
G1 X55.40 Y93.88 F1200
G1 X55.66 Y94.07 F1200
G1 X55.99 Y94.78 F1200
G0 Z6.12 F180
G0 X56.12 Y95.24 F3000
G0 Z2.97 F180
G1 X55.66 Y93.75 F1200
G1 X55.40 Y93.16 F1200
G1 X55.27 Y93.10 F1200
G1 X55.21 Y93.29 F1200
G1 X55.40 Y93.68 F1200
G1 X56.12 Y94.20 F1200
G0 Z6.12 F180
G0 X56.44 Y94.01 F3000
G0 Z2.97 F180
G1 X56.38 Y93.94 F1200
G1 X56.44 Y93.88 F1200
G1 X56.51 Y93.94 F1200
G0 Z6.12 F180
G0 X56.63 Y94.78 F3000
G0 Z2.97 F180
G1 X56.57 Y94.72 F1200
G1 X56.63 Y94.65 F1200
G1 X56.70 Y94.72 F1200
G1 X56.63 Y94.78 F1200
G0 Z6.12 F180
G0 X58.38 Y94.85 F3000
G0 Z2.97 F180
G1 X58.90 Y95.24 F1200
G0 Z6.12 F180
G0 X58.90 Y95.24 F3000
G0 Z2.97 F180
G1 X58.51 Y93.88 F1200
G0 Z6.12 F180
G0 X58.45 Y93.88 F3000
G0 Z2.97 F180
G1 X58.77 Y94.98 F1200
G0 Z6.12 F180
G0 X58.84 Y95.04 F3000
G0 Z2.97 F180
G1 X58.38 Y94.85 F1200
G0 Z6.12 F180
G0 X60.39 Y94.20 F3000
G0 Z2.97 F180
G1 X60.52 Y94.39 F1200
G1 X60.78 Y94.46 F1200
G1 X60.91 Y93.88 F1200
G1 X61.10 Y93.88 F1200
G1 X61.43 Y94.20 F1200
G0 Z6.12 F180
G0 X61.23 Y94.39 F3000
G0 Z2.97 F180
G1 X61.04 Y94.46 F1200
G1 X60.65 Y93.88 F1200
G1 X60.45 Y93.94 F1200
G0 Z6.12 F180
G0 X63.11 Y93.88 F3000
G0 Z2.97 F180
G1 X63.50 Y95.17 F1200
G0 Z6.12 F180
G0 X63.56 Y95.24 F3000
G0 Z2.97 F180
G1 X63.17 Y93.88 F1200
G0 Z6.12 F180
G0 X63.63 Y94.26 F3000
G0 Z2.97 F180
G1 X62.59 Y94.26 F1200
G1 X63.56 Y95.24 F1200
G0 Z6.12 F180
G0 X64.08 Y94.59 F3000
G0 Z2.97 F180
G1 X64.34 Y94.72 F1200
G1 X64.73 Y94.65 F1200
G1 X64.86 Y94.46 F1200
G1 X64.86 Y94.26 F1200
G1 X64.66 Y93.94 F1200
G1 X64.47 Y93.88 F1200
G1 X64.08 Y93.94 F1200
G1 X63.95 Y94.13 F1200
G1 X64.02 Y94.26 F1200
G1 X64.08 Y94.20 F1200
G1 X64.02 Y94.13 F1200
G0 Z6.12 F180
G0 X64.08 Y94.59 F3000
G0 Z2.97 F180
G1 X64.40 Y95.24 F1200
G0 Z6.12 F180
G0 X64.40 Y95.24 F3000
G0 Z2.97 F180
G1 X65.05 Y95.24 F1200
G0 Z6.12 F180
G0 X65.05 Y95.24 F3000
G0 Z2.97 F180
G1 X64.40 Y95.17 F1200
G0 Z6.12 F180
G0 X64.53 Y94.72 F3000
G0 Z2.97 F180
G1 X64.73 Y94.59 F1200
G1 X64.79 Y94.26 F1200
G1 X64.73 Y94.07 F1200
G1 X64.47 Y93.88 F1200
G0 Z6.12 F180
G0 X67.06 Y95.24 F3000
G0 Z2.97 F180
G1 X66.87 Y95.04 F1200
G1 X66.61 Y94.07 F1200
G1 X66.35 Y93.88 F1200
G1 X66.15 Y93.94 F1200
G1 X66.22 Y94.13 F1200
G1 X66.35 Y94.13 F1200
G1 X66.80 Y93.88 F1200
G1 X67.19 Y93.94 F1200
G1 X67.32 Y94.07 F1200
G1 X67.45 Y94.33 F1200
G1 X67.51 Y94.91 F1200
G1 X67.38 Y95.17 F1200
G1 X67.06 Y95.24 F1200
G1 X66.93 Y95.11 F1200
G1 X66.99 Y94.78 F1200
G1 X67.25 Y94.46 F1200
G1 X67.58 Y94.26 F1200
G0 Z6.12 F180
G0 X68.81 Y94.20 F3000
G0 Z2.97 F180
G1 X68.61 Y93.94 F1200
G1 X68.42 Y93.88 F1200
G1 X68.03 Y93.94 F1200
G1 X67.90 Y94.13 F1200
G1 X67.90 Y94.33 F1200
G1 X68.03 Y94.52 F1200
G1 X68.42 Y94.59 F1200
G1 X68.23 Y94.65 F1200
G1 X68.10 Y94.85 F1200
G1 X68.16 Y95.17 F1200
G1 X68.61 Y95.24 F1200
G1 X68.81 Y95.17 F1200
G1 X68.87 Y94.91 F1200
G1 X68.81 Y94.85 F1200
G1 X68.68 Y94.85 F1200
G1 X68.61 Y94.98 F1200
G0 Z6.12 F180
G0 X69.13 Y94.33 F3000
G0 Z2.97 F180
G1 X69.13 Y94.20 F1200
G1 X69.33 Y93.94 F1200
G1 X69.78 Y93.88 F1200
G1 X69.97 Y93.94 F1200
G1 X70.17 Y94.20 F1200
G1 X70.23 Y94.91 F1200
G1 X70.10 Y94.72 F1200
G1 X69.91 Y94.65 F1200
G1 X69.52 Y94.72 F1200
G1 X69.46 Y95.04 F1200
G1 X69.59 Y95.24 F1200
G1 X69.71 Y95.17 F1200
G1 X69.59 Y94.52 F1200
G1 X69.39 Y94.20 F1200
G1 X69.00 Y93.88 F1200
G0 Z6.12 F180
G0 X68.74 Y98.24 F3000
G0 Z2.97 F180
G1 X68.61 Y98.11 F1200
G1 X68.29 Y98.04 F1200
G1 X67.64 Y98.30 F1200
G1 X67.58 Y98.11 F1200
G1 X67.77 Y98.04 F1200
G1 X68.03 Y98.24 F1200
G1 X68.29 Y99.21 F1200
G1 X68.42 Y99.40 F1200
G1 X68.55 Y99.40 F1200
G1 X68.61 Y99.08 F1200
G1 X68.55 Y98.95 F1200
G1 X68.23 Y98.69 F1200
G1 X67.84 Y98.63 F1200
G0 Z6.12 F180
G0 X67.45 Y98.04 F3000
G0 Z2.97 F180
G1 X66.93 Y98.11 F1200
G1 X66.54 Y98.50 F1200
G1 X66.61 Y98.69 F1200
G1 X66.74 Y98.69 F1200
G1 X67.06 Y98.43 F1200
G1 X67.25 Y98.04 F1200
G1 X67.25 Y99.40 F1200
G1 X66.80 Y98.56 F1200
G1 X66.28 Y98.04 F1200
G0 Z6.12 F180
G0 X65.44 Y98.37 F3000
G0 Z2.97 F180
G1 X65.18 Y98.43 F1200
G1 X65.12 Y98.24 F1200
G1 X65.18 Y98.11 F1200
G1 X65.44 Y98.04 F1200
G1 X65.70 Y98.24 F1200
G1 X66.09 Y99.34 F1200
G0 Z6.12 F180
G0 X66.41 Y99.40 F3000
G0 Z2.97 F180
G1 X66.28 Y99.34 F1200
G1 X65.64 Y99.40 F1200
G1 X65.44 Y99.34 F1200
G1 X65.38 Y99.21 F1200
G1 X65.44 Y99.08 F1200
G1 X65.70 Y99.01 F1200
G0 Z6.12 F180
G0 X63.89 Y98.50 F3000
G0 Z2.97 F180
G1 X63.89 Y98.37 F1200
G1 X64.08 Y98.11 F1200
G1 X64.53 Y98.04 F1200
G1 X64.79 Y98.17 F1200
G1 X64.86 Y98.43 F1200
G1 X64.79 Y98.56 F1200
G1 X64.28 Y99.08 F1200
G1 X64.34 Y99.34 F1200
G1 X64.47 Y99.40 F1200
G1 X64.53 Y99.14 F1200
G1 X64.34 Y98.69 F1200
G1 X64.02 Y98.24 F1200
G1 X63.76 Y98.04 F1200
G0 Z6.12 F180
G0 X62.27 Y98.11 F3000
G0 Z2.97 F180
G1 X62.20 Y98.04 F1200
G1 X62.14 Y98.11 F1200
G1 X62.20 Y98.17 F1200
G0 Z6.12 F180
G0 X61.94 Y98.24 F3000
G0 Z2.97 F180
G1 X61.81 Y98.11 F1200
G1 X61.49 Y98.04 F1200
G1 X60.84 Y98.30 F1200
G1 X60.78 Y98.11 F1200
G1 X60.97 Y98.04 F1200
G1 X61.23 Y98.24 F1200
G1 X61.49 Y99.21 F1200
G1 X61.62 Y99.40 F1200
G1 X61.75 Y99.40 F1200
G1 X61.81 Y99.08 F1200
G1 X61.75 Y98.95 F1200
G1 X61.43 Y98.69 F1200
G1 X61.04 Y98.63 F1200
G0 Z6.12 F180
G0 X60.65 Y98.04 F3000
G0 Z2.97 F180
G1 X60.13 Y98.11 F1200
G1 X59.74 Y98.50 F1200
G1 X59.81 Y98.69 F1200
G1 X59.94 Y98.69 F1200
G1 X60.26 Y98.43 F1200
G1 X60.45 Y98.04 F1200
G1 X60.45 Y99.40 F1200
G1 X60.00 Y98.56 F1200
G1 X59.48 Y98.04 F1200
G0 Z6.12 F180
G0 X59.29 Y98.37 F3000
G0 Z2.97 F180
G1 X59.03 Y98.69 F1200
G1 X58.90 Y99.01 F1200
G1 X58.90 Y99.21 F1200
G1 X59.03 Y99.40 F1200
G1 X59.16 Y99.40 F1200
G1 X59.29 Y99.21 F1200
G1 X59.22 Y98.69 F1200
G1 X59.10 Y98.37 F1200
G1 X58.77 Y98.04 F1200
G1 X58.51 Y98.11 F1200
G1 X58.45 Y98.24 F1200
G1 X58.51 Y98.43 F1200
G1 X58.77 Y98.37 F1200
G0 Z6.12 F180
G0 X58.25 Y98.37 F3000
G0 Z2.97 F180
G1 X58.06 Y98.11 F1200
G1 X57.93 Y98.04 F1200
G1 X57.80 Y98.11 F1200
G1 X57.74 Y98.56 F1200
G1 X57.61 Y98.75 F1200
G1 X57.99 Y98.69 F1200
G1 X58.12 Y98.75 F1200
G1 X58.25 Y98.95 F1200
G1 X58.25 Y99.14 F1200
G1 X57.99 Y99.40 F1200
G1 X57.74 Y99.40 F1200
G1 X57.41 Y99.27 F1200
G1 X57.15 Y98.95 F1200
G1 X57.02 Y98.63 F1200
G1 X56.96 Y98.11 F1200
G1 X57.09 Y98.04 F1200
G1 X57.22 Y98.11 F1200
G1 X57.48 Y98.43 F1200
G1 X57.67 Y99.01 F1200
G1 X57.61 Y99.27 F1200
G0 Z6.12 F180
G0 X56.38 Y99.14 F3000
G0 Z2.97 F180
G1 X56.44 Y99.01 F1200
G1 X56.63 Y99.08 F1200
G1 X56.57 Y99.34 F1200
G1 X56.38 Y99.40 F1200
G1 X55.92 Y99.34 F1200
G1 X55.86 Y99.01 F1200
G1 X55.99 Y98.82 F1200
G1 X56.18 Y98.75 F1200
G1 X55.79 Y98.69 F1200
G1 X55.66 Y98.50 F1200
G1 X55.66 Y98.30 F1200
G1 X55.79 Y98.11 F1200
G1 X56.18 Y98.04 F1200
G1 X56.38 Y98.11 F1200
G1 X56.57 Y98.37 F1200
G0 Z6.12 F180
G0 X55.60 Y99.40 F3000
G0 Z2.97 F180
G1 X55.47 Y99.34 F1200
G1 X54.82 Y99.40 F1200
G1 X54.63 Y99.34 F1200
G1 X54.56 Y99.21 F1200
G1 X54.63 Y99.08 F1200
G1 X54.89 Y99.01 F1200
G0 Z6.12 F180
G0 X55.27 Y99.34 F3000
G0 Z2.97 F180
G1 X54.89 Y98.24 F1200
G1 X54.63 Y98.04 F1200
G1 X54.37 Y98.11 F1200
G1 X54.30 Y98.24 F1200
G1 X54.37 Y98.43 F1200
G1 X54.63 Y98.37 F1200
G0 Z6.12 F180
G0 X54.11 Y98.04 F3000
G0 Z2.97 F180
G1 X53.59 Y98.11 F1200
G1 X53.20 Y98.50 F1200
G1 X53.27 Y98.69 F1200
G1 X53.40 Y98.69 F1200
G1 X53.72 Y98.43 F1200
G1 X53.91 Y98.04 F1200
G1 X53.91 Y99.40 F1200
G1 X53.46 Y98.56 F1200
G1 X52.94 Y98.04 F1200
G0 Z6.12 F180
G0 X52.94 Y98.37 F3000
G0 Z2.97 F180
G1 X52.75 Y98.11 F1200
G1 X52.56 Y98.04 F1200
G1 X52.49 Y98.11 F1200
G1 X52.68 Y99.21 F1200
G1 X52.49 Y99.40 F1200
G1 X52.23 Y99.27 F1200
G1 X51.91 Y98.50 F1200
G0 Z6.12 F180
G0 X51.78 Y98.04 F3000
G0 Z2.97 F180
G1 X52.04 Y99.08 F1200
G1 X51.97 Y99.34 F1200
G1 X51.78 Y99.40 F1200
G1 X51.58 Y99.27 F1200
G1 X51.26 Y98.50 F1200
G0 Z6.12 F180
G0 X51.13 Y98.04 F3000
G0 Z2.97 F180
G1 X51.39 Y99.08 F1200
G1 X51.32 Y99.34 F1200
G1 X51.20 Y99.40 F1200
G1 X51.00 Y99.34 F1200
G1 X50.94 Y99.21 F1200
G1 X51.00 Y99.01 F1200
G1 X51.13 Y98.95 F1200
G0 Z6.12 F180
G0 X48.28 Y99.40 F3000
G0 Z2.97 F180
G1 X47.89 Y98.04 F1200
G0 Z6.12 F180
G0 X47.83 Y98.04 F3000
G0 Z2.97 F180
G1 X48.15 Y99.14 F1200
G0 Z6.12 F180
G0 X48.22 Y99.21 F3000
G0 Z2.97 F180
G1 X47.76 Y99.01 F1200
G0 Z6.12 F180
G0 X47.76 Y99.01 F3000
G0 Z2.97 F180
G1 X48.28 Y99.40 F1200
G0 Z6.12 F180
G0 X50.08 Y103.07 F3000
G0 Z2.97 F180
G1 X50.92 Y104.85 F1200
G0 Z6.12 F180
G0 X50.92 Y104.85 F3000
G0 Z2.97 F180
G1 X50.75 Y103.07 F1200
G0 Z6.12 F180
G0 X50.75 Y103.07 F3000
G0 Z2.97 F180
G1 X51.26 Y104.17 F1200
G1 X51.51 Y104.51 F1200
G1 X51.94 Y104.85 F1200
G0 Z6.12 F180
G0 X51.77 Y103.07 F3000
G0 Z2.97 F180
G1 X51.94 Y103.16 F1200
G1 X52.44 Y103.75 F1200
G1 X53.03 Y104.85 F1200
G1 X53.03 Y103.07 F1200
G1 X52.78 Y103.58 F1200
G1 X52.36 Y103.92 F1200
G1 X52.19 Y103.92 F1200
G1 X52.10 Y103.83 F1200
G1 X52.10 Y103.66 F1200
G1 X52.19 Y103.50 F1200
G1 X52.61 Y103.16 F1200
G1 X52.86 Y103.07 F1200
G1 X53.29 Y103.07 F1200
G0 Z6.12 F180
G0 X53.46 Y103.07 F3000
G0 Z2.97 F180
G1 X53.96 Y103.50 F1200
G1 X54.22 Y103.92 F1200
G1 X54.39 Y104.51 F1200
G1 X54.39 Y104.76 F1200
G1 X54.22 Y104.85 F1200
G1 X54.05 Y104.59 F1200
G1 X54.13 Y104.17 F1200
G1 X54.30 Y104.09 F1200
G1 X54.89 Y104.17 F1200
G1 X55.06 Y104.42 F1200
G1 X54.98 Y103.50 F1200
G1 X54.72 Y103.16 F1200
G1 X54.47 Y103.07 F1200
G1 X53.88 Y103.16 F1200
G1 X53.62 Y103.50 F1200
G1 X53.62 Y103.66 F1200
G0 Z6.12 F180
G0 X55.91 Y103.50 F3000
G0 Z2.97 F180
G1 X55.57 Y103.58 F1200
G1 X55.48 Y103.50 F1200
G1 X55.57 Y103.16 F1200
G1 X55.91 Y103.07 F1200
G1 X56.24 Y103.33 F1200
G1 X56.50 Y103.92 F1200
G1 X56.58 Y104.59 F1200
G1 X56.41 Y104.85 F1200
G1 X56.24 Y104.85 F1200
G1 X56.07 Y104.59 F1200
G1 X56.07 Y104.34 F1200
G1 X56.24 Y103.92 F1200
G1 X56.58 Y103.50 F1200
G0 Z6.12 F180
G0 X50.08 Y103.07 F3000
G0 Z2.97 F180
G1 X50.16 Y104.59 F1200
G1 X50.08 Y104.76 F1200
G1 X49.91 Y104.85 F1200
G1 X49.66 Y104.76 F1200
G1 X49.57 Y104.59 F1200
G1 X49.66 Y104.34 F1200
G1 X49.82 Y104.26 F1200
G0 Z6.12 F180
G0 X48.98 Y104.26 F3000
G0 Z2.97 F180
G1 X48.81 Y103.16 F1200
G1 X48.90 Y103.07 F1200
G1 X49.15 Y103.16 F1200
G1 X49.40 Y103.50 F1200
G0 Z6.12 F180
G0 X49.15 Y104.85 F3000
G0 Z2.97 F180
G1 X48.73 Y103.58 F1200
G1 X48.56 Y103.24 F1200
G1 X48.30 Y103.07 F1200
G1 X47.97 Y103.16 F1200
G1 X47.88 Y103.33 F1200
G1 X48.14 Y104.59 F1200
G1 X48.05 Y104.76 F1200
G1 X47.88 Y104.85 F1200
G1 X47.63 Y104.76 F1200
G1 X47.54 Y104.59 F1200
G1 X47.63 Y104.34 F1200
G1 X47.80 Y104.26 F1200
G0 Z6.12 F180
G0 X62.40 Y98.95 F3000
G0 Z2.97 F180
G1 X62.33 Y98.88 F1200
G1 X62.40 Y98.82 F1200
G1 X62.46 Y98.88 F1200
G1 X62.40 Y98.95 F1200
G0 Z6.12 F180
G0 X70.62 Y99.01 F3000
G0 Z2.97 F180
G1 X70.69 Y98.88 F1200
G1 X70.94 Y98.95 F1200
G1 X71.01 Y99.08 F1200
G1 X70.94 Y99.34 F1200
G1 X70.62 Y99.40 F1200
G1 X70.30 Y99.21 F1200
G1 X70.10 Y98.88 F1200
G1 X70.04 Y98.37 F1200
G1 X70.10 Y98.17 F1200
G1 X70.30 Y98.04 F1200
G1 X70.62 Y98.11 F1200
G1 X70.82 Y98.37 F1200
G0 Z6.12 F180
G0 X71.79 Y98.04 F3000
G0 Z2.97 F180
G1 X72.18 Y99.34 F1200
G0 Z6.12 F180
G0 X72.24 Y99.40 F3000
G0 Z2.97 F180
G1 X71.85 Y98.04 F1200
G0 Z6.12 F180
G0 X72.30 Y98.43 F3000
G0 Z2.97 F180
G1 X71.27 Y98.43 F1200
G1 X72.24 Y99.40 F1200
G0 Z6.12 F180
G0 X72.76 Y98.75 F3000
G0 Z2.97 F180
G1 X73.08 Y99.40 F1200
G0 Z6.12 F180
G0 X73.08 Y99.40 F3000
G0 Z2.97 F180
G1 X73.73 Y99.40 F1200
G0 Z6.12 F180
G0 X73.73 Y99.40 F3000
G0 Z2.97 F180
G1 X73.08 Y99.34 F1200
G0 Z6.12 F180
G0 X73.21 Y98.88 F3000
G0 Z2.97 F180
G1 X73.41 Y98.75 F1200
G1 X73.47 Y98.43 F1200
G1 X73.41 Y98.24 F1200
G1 X73.15 Y98.04 F1200
G0 Z6.12 F180
G0 X72.69 Y98.30 F3000
G0 Z2.97 F180
G1 X72.76 Y98.37 F1200
G1 X72.69 Y98.43 F1200
G1 X72.63 Y98.30 F1200
G1 X72.76 Y98.11 F1200
G1 X73.15 Y98.04 F1200
G1 X73.34 Y98.11 F1200
G1 X73.53 Y98.43 F1200
G1 X73.53 Y98.63 F1200
G1 X73.41 Y98.82 F1200
G1 X73.02 Y98.88 F1200
G1 X72.76 Y98.75 F1200
G0 Z6.12 F180
G0 X78.33 Y89.90 F3000
G0 Z2.97 F180
G1 X78.52 Y90.23 F1200
G1 X78.65 Y90.29 F1200
G1 X78.84 Y90.23 F1200
G1 X78.78 Y89.90 F1200
G1 X78.84 Y89.71 F1200
G1 X79.04 Y89.77 F1200
G1 X79.23 Y90.03 F1200
G0 Z6.12 F180
G0 X79.30 Y89.90 F3000
G0 Z2.97 F180
G1 X79.36 Y89.71 F1200
G1 X79.49 Y89.71 F1200
G1 X79.75 Y90.10 F1200
G1 X79.95 Y90.87 F1200
G1 X79.75 Y91.07 F1200
G1 X79.56 Y91.00 F1200
G1 X79.49 Y90.87 F1200
G1 X79.56 Y90.68 F1200
G1 X79.69 Y90.62 F1200
G0 Z6.12 F180
G0 X79.88 Y90.49 F3000
G0 Z2.97 F180
G1 X80.14 Y90.55 F1200
G1 X80.66 Y91.07 F1200
G1 X80.79 Y91.00 F1200
G1 X80.79 Y90.87 F1200
G0 Z6.12 F180
G0 X80.59 Y90.03 F3000
G0 Z2.97 F180
G1 X80.40 Y89.77 F1200
G1 X80.20 Y89.71 F1200
G1 X80.07 Y89.90 F1200
G1 X80.01 Y90.49 F1200
G0 Z6.12 F180
G0 X103.97 Y78.24 F3000
G0 Z2.97 F180
G1 X105.31 Y76.44 F1200
G0 Z6.12 F180
G0 X111.67 Y63.70 F3000
G0 Z2.97 F180
G1 X111.73 Y63.58 F1200
G1 X111.92 Y63.64 F1200
G1 X111.86 Y63.89 F1200
G1 X111.67 Y63.95 F1200
G1 X111.24 Y63.89 F1200
G1 X111.18 Y63.58 F1200
G1 X111.30 Y63.39 F1200
G1 X111.49 Y63.33 F1200
G1 X111.11 Y63.27 F1200
G1 X110.99 Y63.08 F1200
G1 X110.99 Y62.90 F1200
G1 X111.11 Y62.71 F1200
G1 X111.49 Y62.65 F1200
G1 X111.67 Y62.71 F1200
G1 X111.86 Y62.96 F1200
G0 Z6.12 F180
G0 X110.68 Y62.84 F3000
G0 Z2.97 F180
G1 X110.12 Y62.47 F1200
G1 X109.94 Y62.09 F1200
G1 X110.00 Y61.91 F1200
G1 X110.18 Y62.09 F1200
G1 X110.62 Y63.52 F1200
G1 X110.56 Y63.89 F1200
G1 X110.37 Y63.95 F1200
G1 X110.25 Y63.89 F1200
G1 X110.18 Y63.70 F1200
G1 X110.18 Y63.33 F1200
G1 X110.25 Y62.96 F1200
G1 X110.49 Y62.47 F1200
G0 Z6.12 F180
G0 X112.85 Y63.95 F3000
G0 Z2.97 F180
G1 X112.66 Y63.77 F1200
G1 X112.41 Y62.84 F1200
G1 X112.17 Y62.65 F1200
G1 X111.98 Y62.71 F1200
G1 X112.04 Y62.90 F1200
G1 X112.60 Y62.65 F1200
G1 X112.97 Y62.71 F1200
G1 X113.10 Y62.84 F1200
G1 X113.22 Y63.08 F1200
G1 X113.28 Y63.64 F1200
G1 X113.16 Y63.89 F1200
G1 X112.85 Y63.95 F1200
G1 X112.72 Y63.83 F1200
G1 X112.79 Y63.52 F1200
G1 X113.03 Y63.21 F1200
G1 X113.34 Y63.02 F1200
G0 Z6.12 F180
G0 X113.90 Y63.08 F3000
G0 Z2.97 F180
G1 X114.21 Y63.83 F1200
G1 X114.52 Y63.95 F1200
G1 X114.71 Y63.77 F1200
G1 X114.52 Y62.71 F1200
G1 X114.58 Y62.65 F1200
G1 X114.77 Y62.71 F1200
G1 X114.95 Y62.96 F1200
G0 Z6.12 F180
G0 X113.78 Y62.65 F3000
G0 Z2.97 F180
G1 X114.02 Y63.64 F1200
G1 X113.96 Y63.89 F1200
G1 X113.84 Y63.95 F1200
G1 X113.65 Y63.89 F1200
G1 X113.59 Y63.77 F1200
G1 X113.65 Y63.58 F1200
G1 X113.78 Y63.52 F1200
G0 Z6.12 F180
G0 X115.70 Y63.95 F3000
G0 Z2.97 F180
G1 X115.39 Y63.77 F1200
G1 X115.20 Y63.46 F1200
G1 X115.14 Y63.21 F1200
G1 X115.20 Y62.77 F1200
G1 X115.39 Y62.65 F1200
G1 X115.70 Y62.71 F1200
G1 X116.01 Y63.15 F1200
G1 X116.07 Y63.39 F1200
G1 X116.01 Y63.83 F1200
G1 X115.70 Y63.95 F1200
G1 X115.57 Y63.83 F1200
G1 X115.64 Y63.46 F1200
G1 X115.88 Y63.15 F1200
G1 X116.19 Y62.96 F1200
G0 Z6.12 F180
G0 X116.38 Y63.08 F3000
G0 Z2.97 F180
G1 X116.38 Y62.96 F1200
G1 X116.56 Y62.71 F1200
G1 X117.00 Y62.65 F1200
G1 X117.25 Y62.77 F1200
G1 X117.31 Y63.02 F1200
G1 X117.25 Y63.15 F1200
G1 X116.75 Y63.64 F1200
G1 X116.81 Y63.89 F1200
G1 X116.94 Y63.95 F1200
G1 X117.00 Y63.70 F1200
G1 X116.81 Y63.27 F1200
G1 X116.50 Y62.84 F1200
G1 X116.25 Y62.65 F1200
G0 Z6.12 F180
G0 X117.86 Y62.96 F3000
G0 Z2.97 F180
G1 X117.62 Y63.02 F1200
G1 X117.56 Y62.96 F1200
G1 X117.62 Y62.71 F1200
G1 X117.86 Y62.65 F1200
G1 X118.11 Y62.84 F1200
G1 X118.48 Y63.89 F1200
G0 Z6.12 F180
G0 X118.79 Y63.95 F3000
G0 Z2.97 F180
G1 X118.67 Y63.89 F1200
G1 X118.05 Y63.95 F1200
G1 X117.86 Y63.89 F1200
G1 X117.80 Y63.77 F1200
G1 X117.86 Y63.64 F1200
G1 X118.11 Y63.58 F1200
G0 Z6.12 F180
G0 X118.73 Y62.84 F3000
G0 Z2.97 F180
G1 X118.73 Y62.71 F1200
G1 X118.92 Y62.65 F1200
G1 X119.17 Y63.02 F1200
G1 X119.35 Y63.77 F1200
G1 X119.17 Y63.95 F1200
G1 X118.98 Y63.89 F1200
G1 X118.92 Y63.77 F1200
G1 X118.98 Y63.58 F1200
G1 X119.10 Y63.52 F1200
G0 Z6.12 F180
G0 X119.29 Y63.39 F3000
G0 Z2.97 F180
G1 X119.54 Y63.46 F1200
G1 X120.03 Y63.95 F1200
G1 X120.16 Y63.89 F1200
G1 X120.16 Y63.77 F1200
G0 Z6.12 F180
G0 X119.97 Y62.96 F3000
G0 Z2.97 F180
G1 X119.78 Y62.71 F1200
G1 X119.60 Y62.65 F1200
G1 X119.48 Y62.84 F1200
G1 X119.41 Y63.39 F1200
G0 Z6.12 F180
G0 X120.53 Y62.96 F3000
G0 Z2.97 F180
G1 X120.28 Y63.02 F1200
G1 X120.22 Y62.96 F1200
G1 X120.28 Y62.71 F1200
G1 X120.53 Y62.65 F1200
G1 X120.65 Y62.71 F1200
G1 X120.96 Y63.27 F1200
G1 X121.02 Y63.77 F1200
G1 X120.90 Y63.95 F1200
G1 X120.78 Y63.95 F1200
G1 X120.65 Y63.77 F1200
G1 X120.65 Y63.58 F1200
G1 X120.78 Y63.27 F1200
G1 X121.02 Y62.96 F1200
G0 Z6.12 F180
G0 X122.20 Y62.96 F3000
G0 Z2.97 F180
G1 X122.32 Y63.15 F1200
G1 X122.45 Y63.21 F1200
G1 X122.51 Y63.15 F1200
G1 X122.39 Y62.65 F1200
G0 Z6.12 F180
G0 X122.45 Y62.84 F3000
G0 Z2.97 F180
G1 X122.63 Y63.15 F1200
G1 X122.88 Y63.21 F1200
G1 X122.94 Y63.08 F1200
G1 X122.82 Y62.65 F1200
G0 Z6.12 F180
G0 X122.88 Y62.84 F3000
G0 Z2.97 F180
G1 X123.07 Y63.15 F1200
G1 X123.19 Y63.21 F1200
G1 X123.38 Y63.15 F1200
G1 X123.32 Y62.84 F1200
G1 X123.38 Y62.65 F1200
G1 X123.56 Y62.71 F1200
G1 X123.75 Y62.96 F1200
G0 Z6.12 F180
G0 X123.75 Y62.96 F3000
G0 Z2.97 F180
G1 X123.87 Y63.15 F1200
G1 X124.00 Y63.21 F1200
G1 X124.06 Y63.15 F1200
G1 X123.93 Y62.65 F1200
G0 Z6.12 F180
G0 X124.00 Y62.84 F3000
G0 Z2.97 F180
G1 X124.18 Y63.15 F1200
G1 X124.43 Y63.21 F1200
G1 X124.49 Y63.08 F1200
G1 X124.37 Y62.65 F1200
G0 Z6.12 F180
G0 X124.43 Y62.84 F3000
G0 Z2.97 F180
G1 X124.62 Y63.15 F1200
G1 X124.74 Y63.21 F1200
G1 X124.93 Y63.15 F1200
G1 X124.86 Y62.84 F1200
G1 X124.93 Y62.65 F1200
G1 X125.11 Y62.71 F1200
G1 X125.30 Y62.96 F1200
G0 Z6.12 F180
G0 X142.23 Y68.06 F3000
G0 Z2.97 F180
G1 X142.28 Y67.88 F1200
G1 X142.40 Y67.88 F1200
G1 X142.64 Y68.24 F1200
G1 X142.82 Y68.95 F1200
G1 X142.64 Y69.13 F1200
G1 X142.46 Y69.07 F1200
G1 X142.40 Y68.95 F1200
G1 X142.46 Y68.77 F1200
G1 X142.58 Y68.71 F1200
G0 Z6.12 F180
G0 X142.76 Y68.59 F3000
G0 Z2.97 F180
G1 X142.99 Y68.65 F1200
G1 X143.47 Y69.13 F1200
G1 X143.59 Y69.07 F1200
G1 X143.59 Y68.95 F1200
G0 Z6.12 F180
G0 X144.29 Y69.13 F3000
G0 Z2.97 F180
G1 X144.00 Y68.95 F1200
G1 X143.82 Y68.65 F1200
G1 X143.76 Y68.42 F1200
G1 X143.82 Y68.00 F1200
G1 X144.00 Y67.88 F1200
G1 X144.29 Y67.94 F1200
G1 X144.59 Y68.36 F1200
G1 X144.65 Y68.59 F1200
G1 X144.59 Y69.01 F1200
G1 X144.29 Y69.13 F1200
G1 X144.18 Y69.01 F1200
G1 X144.24 Y68.65 F1200
G1 X144.47 Y68.36 F1200
G1 X144.77 Y68.18 F1200
G0 Z6.12 F180
G0 X145.36 Y68.06 F3000
G0 Z2.97 F180
G1 X145.42 Y67.94 F1200
G1 X145.71 Y67.88 F1200
G1 X145.95 Y68.12 F1200
G1 X145.89 Y68.42 F1200
G1 X145.60 Y68.54 F1200
G0 Z6.12 F180
G0 X145.65 Y68.54 F3000
G0 Z2.97 F180
G1 X146.01 Y68.71 F1200
G1 X146.07 Y68.95 F1200
G1 X146.01 Y69.07 F1200
G1 X145.71 Y69.13 F1200
G1 X145.30 Y68.89 F1200
G1 X145.06 Y68.42 F1200
G1 X145.00 Y67.94 F1200
G1 X145.06 Y67.88 F1200
G1 X145.36 Y68.06 F1200
G1 X145.54 Y68.36 F1200
G1 X145.65 Y68.77 F1200
G1 X145.60 Y69.01 F1200
G0 Z6.12 F180
G0 X146.96 Y69.01 F3000
G0 Z2.97 F180
G1 X147.01 Y68.77 F1200
G1 X146.84 Y68.24 F1200
G1 X146.60 Y67.94 F1200
G1 X146.48 Y67.88 F1200
G1 X146.36 Y67.94 F1200
G1 X146.54 Y68.71 F1200
G1 X146.78 Y69.01 F1200
G1 X147.07 Y69.13 F1200
G1 X147.43 Y69.07 F1200
G1 X147.55 Y68.89 F1200
G1 X147.55 Y68.71 F1200
G1 X147.43 Y68.54 F1200
G1 X147.31 Y68.48 F1200
G1 X146.96 Y68.54 F1200
G1 X147.07 Y68.36 F1200
G1 X147.13 Y67.94 F1200
G1 X147.25 Y67.88 F1200
G1 X147.37 Y67.94 F1200
G1 X147.55 Y68.18 F1200
G0 Z6.12 F180
G0 X147.66 Y67.88 F3000
G0 Z2.97 F180
G1 X148.14 Y68.36 F1200
G1 X148.55 Y69.13 F1200
G1 X148.55 Y67.88 F1200
G1 X148.37 Y68.24 F1200
G1 X148.08 Y68.48 F1200
G1 X147.96 Y68.48 F1200
G1 X147.90 Y68.30 F1200
G1 X148.26 Y67.94 F1200
G1 X148.73 Y67.88 F1200
G0 Z6.12 F180
G0 X149.85 Y67.88 F3000
G0 Z2.97 F180
G1 X150.09 Y68.24 F1200
G1 X150.80 Y68.71 F1200
G1 X150.86 Y68.95 F1200
G1 X150.80 Y69.07 F1200
G1 X150.44 Y69.13 F1200
G1 X150.21 Y69.01 F1200
G1 X150.15 Y68.83 F1200
G1 X150.21 Y68.77 F1200
G1 X150.27 Y68.83 F1200
G1 X150.21 Y68.89 F1200
G0 Z6.12 F180
G0 X150.62 Y69.13 F3000
G0 Z2.97 F180
G1 X150.74 Y69.07 F1200
G1 X150.80 Y68.83 F1200
G1 X150.62 Y68.59 F1200
G1 X150.27 Y68.36 F1200
G0 Z6.12 F180
G0 X150.09 Y68.06 F3000
G0 Z2.97 F180
G1 X150.38 Y67.88 F1200
G1 X150.56 Y67.88 F1200
G1 X150.68 Y67.94 F1200
G1 X150.74 Y68.12 F1200
G0 Z6.12 F180
G0 X150.74 Y68.12 F3000
G0 Z2.97 F180
G1 X150.56 Y67.94 F1200
G1 X150.09 Y68.06 F1200
G1 X149.91 Y68.00 F1200
G0 Z6.12 F180
G0 X152.28 Y67.88 F3000
G0 Z2.97 F180
G1 X152.51 Y68.83 F1200
G1 X152.45 Y69.07 F1200
G1 X152.34 Y69.13 F1200
G1 X152.16 Y69.07 F1200
G1 X152.10 Y68.95 F1200
G1 X152.16 Y68.77 F1200
G1 X152.28 Y68.71 F1200
G0 Z6.12 F180
G0 X152.39 Y68.30 F3000
G0 Z2.97 F180
G1 X152.69 Y69.01 F1200
G1 X152.99 Y69.13 F1200
G1 X153.16 Y68.95 F1200
G1 X152.99 Y67.94 F1200
G1 X153.04 Y67.88 F1200
G1 X153.22 Y67.94 F1200
G1 X153.40 Y68.18 F1200
G0 Z6.12 F180
G0 X154.40 Y68.18 F3000
G0 Z2.97 F180
G1 X154.23 Y67.94 F1200
G1 X154.05 Y67.88 F1200
G1 X153.70 Y67.94 F1200
G1 X153.58 Y68.12 F1200
G1 X153.58 Y68.30 F1200
G1 X153.70 Y68.48 F1200
G1 X154.05 Y68.54 F1200
G1 X153.87 Y68.59 F1200
G1 X153.75 Y68.77 F1200
G1 X153.81 Y69.07 F1200
G1 X154.23 Y69.13 F1200
G1 X154.40 Y69.07 F1200
G1 X154.46 Y68.83 F1200
G1 X154.40 Y68.77 F1200
G1 X154.29 Y68.77 F1200
G1 X154.23 Y68.89 F1200
G0 Z6.12 F180
G0 X155.29 Y69.13 F3000
G0 Z2.97 F180
G1 X155.00 Y68.95 F1200
G1 X154.82 Y68.65 F1200
G1 X154.76 Y68.42 F1200
G1 X154.82 Y68.00 F1200
G1 X155.00 Y67.88 F1200
G1 X155.29 Y67.94 F1200
G1 X155.59 Y68.36 F1200
G1 X155.65 Y68.59 F1200
G1 X155.59 Y69.01 F1200
G1 X155.29 Y69.13 F1200
G1 X155.17 Y69.01 F1200
G1 X155.23 Y68.65 F1200
G1 X155.47 Y68.36 F1200
G1 X155.76 Y68.18 F1200
G0 Z6.12 F180
G0 X143.41 Y68.18 F3000
G0 Z2.97 F180
G1 X143.23 Y67.94 F1200
G1 X143.05 Y67.88 F1200
G1 X142.94 Y68.06 F1200
G1 X142.88 Y68.59 F1200
G0 Z6.12 F180
G0 X142.46 Y82.47 F3000
G0 Z2.97 F180
G1 X142.70 Y83.41 F1200
G1 X142.64 Y83.65 F1200
G1 X142.52 Y83.71 F1200
G1 X142.34 Y83.65 F1200
G1 X142.28 Y83.53 F1200
G1 X142.34 Y83.35 F1200
G1 X142.46 Y83.30 F1200
G0 Z6.12 F180
G0 X142.58 Y82.88 F3000
G0 Z2.97 F180
G1 X142.88 Y83.59 F1200
G1 X143.17 Y83.71 F1200
G1 X143.35 Y83.53 F1200
G1 X143.17 Y82.53 F1200
G1 X143.23 Y82.47 F1200
G1 X143.41 Y82.53 F1200
G1 X143.59 Y82.76 F1200
G0 Z6.12 F180
G0 X144.35 Y83.59 F3000
G0 Z2.97 F180
G1 X144.41 Y83.35 F1200
G1 X144.24 Y82.82 F1200
G1 X144.00 Y82.53 F1200
G1 X143.88 Y82.47 F1200
G1 X143.76 Y82.53 F1200
G1 X143.94 Y83.30 F1200
G1 X144.18 Y83.59 F1200
G1 X144.47 Y83.71 F1200
G1 X144.71 Y83.71 F1200
G1 X144.95 Y83.47 F1200
G1 X144.95 Y83.30 F1200
G1 X144.83 Y83.12 F1200
G1 X144.71 Y83.06 F1200
G1 X144.35 Y83.12 F1200
G1 X144.47 Y82.94 F1200
G1 X144.53 Y82.53 F1200
G1 X144.65 Y82.47 F1200
G1 X144.77 Y82.53 F1200
G1 X144.95 Y82.76 F1200
G0 Z6.12 F180
G0 X146.31 Y83.30 F3000
G0 Z2.97 F180
G1 X146.19 Y83.35 F1200
G1 X146.13 Y83.53 F1200
G1 X146.19 Y83.65 F1200
G1 X146.36 Y83.71 F1200
G1 X146.54 Y83.53 F1200
G1 X146.48 Y82.47 F1200
G0 Z6.12 F180
G0 X146.48 Y82.47 F3000
G0 Z2.97 F180
G1 X147.07 Y83.71 F1200
G0 Z6.12 F180
G0 X147.07 Y83.71 F3000
G0 Z2.97 F180
G1 X146.96 Y82.47 F1200
G0 Z6.12 F180
G0 X146.96 Y82.47 F3000
G0 Z2.97 F180
G1 X147.31 Y83.24 F1200
G1 X147.78 Y83.71 F1200
G0 Z6.12 F180
G0 X147.90 Y83.00 F3000
G0 Z2.97 F180
G1 X148.97 Y83.00 F1200
G0 Z6.12 F180
G0 X149.62 Y82.47 F3000
G0 Z2.97 F180
G1 X149.50 Y82.59 F1200
G1 X149.44 Y82.94 F1200
G1 X149.56 Y83.35 F1200
G1 X149.91 Y83.71 F1200
G0 Z6.12 F180
G0 X149.91 Y83.71 F3000
G0 Z2.97 F180
G1 X149.62 Y83.53 F1200
G1 X149.38 Y82.94 F1200
G1 X149.44 Y82.59 F1200
G1 X149.62 Y82.47 F1200
G1 X149.91 Y82.53 F1200
G1 X150.03 Y82.65 F1200
G1 X150.27 Y83.24 F1200
G1 X150.21 Y83.59 F1200
G1 X149.91 Y83.71 F1200
G0 Z6.12 F180
G0 X150.03 Y83.71 F3000
G0 Z2.97 F180
G1 X150.15 Y83.59 F1200
G1 X150.21 Y83.24 F1200
G1 X150.09 Y82.82 F1200
G1 X149.73 Y82.47 F1200
G0 Z6.12 F180
G0 X150.86 Y82.47 F3000
G0 Z2.97 F180
G1 X150.74 Y82.59 F1200
G1 X150.68 Y82.94 F1200
G1 X150.80 Y83.35 F1200
G1 X151.15 Y83.71 F1200
G0 Z6.12 F180
G0 X151.15 Y83.71 F3000
G0 Z2.97 F180
G1 X150.86 Y83.53 F1200
G1 X150.62 Y82.94 F1200
G1 X150.68 Y82.59 F1200
G1 X150.86 Y82.47 F1200
G1 X151.15 Y82.53 F1200
G1 X151.27 Y82.65 F1200
G1 X151.51 Y83.24 F1200
G1 X151.45 Y83.59 F1200
G1 X151.15 Y83.71 F1200
G0 Z6.12 F180
G0 X151.27 Y83.71 F3000
G0 Z2.97 F180
G1 X151.39 Y83.59 F1200
G1 X151.45 Y83.24 F1200
G1 X151.33 Y82.82 F1200
G1 X150.98 Y82.47 F1200
G0 Z6.12 F180
G0 X152.10 Y82.47 F3000
G0 Z2.97 F180
G1 X152.39 Y83.47 F1200
G0 Z6.12 F180
G0 X152.45 Y83.53 F3000
G0 Z2.97 F180
G1 X152.04 Y83.35 F1200
G0 Z6.12 F180
G0 X152.04 Y83.35 F3000
G0 Z2.97 F180
G1 X152.51 Y83.71 F1200
G0 Z6.12 F180
G0 X152.51 Y83.71 F3000
G0 Z2.97 F180
G1 X152.16 Y82.47 F1200
G0 Z6.12 F180
G0 X165.08 Y88.21 F3000
G0 Z2.97 F180
G1 X165.08 Y58.00 F1200
G0 Z6.12 F180
G0 X169.04 Y60.26 F3000
G0 Z2.97 F180
G1 X169.21 Y60.14 F1200
G1 X169.51 Y60.20 F1200
G1 X169.63 Y60.38 F1200
G1 X169.57 Y60.67 F1200
G1 X169.39 Y60.79 F1200
G1 X169.10 Y60.79 F1200
G1 X168.80 Y60.67 F1200
G1 X168.44 Y60.08 F1200
G1 X168.39 Y59.61 F1200
G1 X168.44 Y59.55 F1200
G1 X168.62 Y59.61 F1200
G1 X168.92 Y60.02 F1200
G1 X169.04 Y60.44 F1200
G1 X168.98 Y60.67 F1200
G0 Z6.12 F180
G0 X170.51 Y60.56 F3000
G0 Z2.97 F180
G1 X170.57 Y60.44 F1200
G1 X170.75 Y60.50 F1200
G1 X170.69 Y60.73 F1200
G1 X170.51 Y60.79 F1200
G1 X170.10 Y60.73 F1200
G1 X170.04 Y60.44 F1200
G1 X170.16 Y60.26 F1200
G1 X170.34 Y60.20 F1200
G1 X169.98 Y60.14 F1200
G1 X169.86 Y59.97 F1200
G1 X169.86 Y59.79 F1200
G1 X169.98 Y59.61 F1200
G1 X170.34 Y59.55 F1200
G1 X170.51 Y59.61 F1200
G1 X170.69 Y59.85 F1200
G0 Z6.12 F180
G0 X171.16 Y59.55 F3000
G0 Z2.97 F180
G1 X171.40 Y60.50 F1200
G1 X171.34 Y60.73 F1200
G1 X171.22 Y60.79 F1200
G1 X171.05 Y60.73 F1200
G1 X170.99 Y60.62 F1200
G1 X171.05 Y60.44 F1200
G1 X171.16 Y60.38 F1200
G0 Z6.12 F180
G0 X171.28 Y59.97 F3000
G0 Z2.97 F180
G1 X171.58 Y60.67 F1200
G1 X171.87 Y60.79 F1200
G1 X172.05 Y60.62 F1200
G1 X171.87 Y59.61 F1200
G1 X171.93 Y59.55 F1200
G1 X172.11 Y59.61 F1200
G1 X172.29 Y59.85 F1200
G0 Z6.12 F180
G0 X174.06 Y60.26 F3000
G0 Z2.97 F180
G1 X174.24 Y60.14 F1200
G1 X174.53 Y60.20 F1200
G1 X174.65 Y60.38 F1200
G1 X174.59 Y60.67 F1200
G1 X174.42 Y60.79 F1200
G1 X174.12 Y60.79 F1200
G1 X173.71 Y60.56 F1200
G1 X173.47 Y60.08 F1200
G1 X173.41 Y59.61 F1200
G1 X173.47 Y59.55 F1200
G1 X173.77 Y59.73 F1200
G1 X173.94 Y60.02 F1200
G1 X174.06 Y60.44 F1200
G1 X174.00 Y60.67 F1200
G0 Z6.12 F180
G0 X174.95 Y60.08 F3000
G0 Z2.97 F180
G1 X175.30 Y60.14 F1200
G1 X175.60 Y60.38 F1200
G1 X175.66 Y60.50 F1200
G1 X175.60 Y60.79 F1200
G1 X175.48 Y60.79 F1200
G1 X175.36 Y60.62 F1200
G1 X175.13 Y59.73 F1200
G1 X174.89 Y59.55 F1200
G1 X174.71 Y59.61 F1200
G1 X174.77 Y59.79 F1200
G1 X175.36 Y59.55 F1200
G1 X175.66 Y59.61 F1200
G1 X175.78 Y59.73 F1200
G0 Z6.12 F180
G0 X177.02 Y59.85 F3000
G0 Z2.97 F180
G1 X176.72 Y60.02 F1200
G1 X176.49 Y60.32 F1200
G1 X176.43 Y60.67 F1200
G1 X176.54 Y60.79 F1200
G1 X176.84 Y60.67 F1200
G1 X176.90 Y60.26 F1200
G1 X176.84 Y60.02 F1200
G1 X176.54 Y59.61 F1200
G1 X176.25 Y59.55 F1200
G1 X176.07 Y59.67 F1200
G1 X176.01 Y60.08 F1200
G1 X176.07 Y60.32 F1200
G1 X176.25 Y60.62 F1200
G1 X176.54 Y60.79 F1200
G0 Z6.12 F180
G0 X177.67 Y60.44 F3000
G0 Z2.97 F180
G1 X177.43 Y60.50 F1200
G1 X177.37 Y60.62 F1200
G1 X177.43 Y60.73 F1200
G1 X178.32 Y60.79 F1200
G0 Z6.12 F180
G0 X178.02 Y60.73 F3000
G0 Z2.97 F180
G1 X177.67 Y59.73 F1200
G1 X177.43 Y59.55 F1200
G1 X177.19 Y59.61 F1200
G1 X177.14 Y59.85 F1200
G1 X177.19 Y59.91 F1200
G1 X177.43 Y59.85 F1200
G0 Z6.12 F180
G0 X177.79 Y82.47 F3000
G0 Z2.97 F180
G1 X177.31 Y82.53 F1200
G1 X176.96 Y82.88 F1200
G1 X177.02 Y83.06 F1200
G1 X177.14 Y83.06 F1200
G1 X177.43 Y82.82 F1200
G1 X177.61 Y82.47 F1200
G1 X177.61 Y83.71 F1200
G1 X177.19 Y82.94 F1200
G1 X176.72 Y82.47 F1200
G0 Z6.12 F180
G0 X175.66 Y82.47 F3000
G0 Z2.97 F180
G1 X175.18 Y82.53 F1200
G1 X174.83 Y82.88 F1200
G1 X174.89 Y83.06 F1200
G1 X175.01 Y83.06 F1200
G1 X175.30 Y82.82 F1200
G1 X175.48 Y82.47 F1200
G1 X175.48 Y83.71 F1200
G1 X175.07 Y82.94 F1200
G1 X174.59 Y82.47 F1200
G0 Z6.12 F180
G0 X174.48 Y82.65 F3000
G0 Z2.97 F180
G1 X173.94 Y82.29 F1200
G1 X173.77 Y81.94 F1200
G1 X173.82 Y81.76 F1200
G1 X174.00 Y81.94 F1200
G1 X174.42 Y83.30 F1200
G1 X174.36 Y83.65 F1200
G1 X174.18 Y83.71 F1200
G1 X174.06 Y83.65 F1200
G1 X174.00 Y83.47 F1200
G1 X174.00 Y83.12 F1200
G1 X174.06 Y82.76 F1200
G1 X174.30 Y82.29 F1200
G0 Z6.12 F180
G0 X172.64 Y82.88 F3000
G0 Z2.97 F180
G1 X172.70 Y82.65 F1200
G1 X172.82 Y82.53 F1200
G1 X173.23 Y82.47 F1200
G1 X173.47 Y82.59 F1200
G1 X173.53 Y82.82 F1200
G1 X173.47 Y82.94 F1200
G1 X173.00 Y83.41 F1200
G1 X173.06 Y83.65 F1200
G1 X173.17 Y83.71 F1200
G1 X173.23 Y83.47 F1200
G1 X173.06 Y83.06 F1200
G1 X172.76 Y82.65 F1200
G1 X172.52 Y82.47 F1200
G0 Z6.12 F180
G0 X172.41 Y82.76 F3000
G0 Z2.97 F180
G1 X172.23 Y82.53 F1200
G1 X172.11 Y82.47 F1200
G1 X171.99 Y82.53 F1200
G1 X171.93 Y82.94 F1200
G1 X171.81 Y83.12 F1200
G1 X172.17 Y83.06 F1200
G1 X172.29 Y83.12 F1200
G1 X172.41 Y83.30 F1200
G1 X172.41 Y83.47 F1200
G1 X172.17 Y83.71 F1200
G1 X171.93 Y83.71 F1200
G1 X171.64 Y83.59 F1200
G1 X171.40 Y83.30 F1200
G1 X171.22 Y82.53 F1200
G1 X171.34 Y82.47 F1200
G1 X171.46 Y82.53 F1200
G1 X171.70 Y82.82 F1200
G1 X171.87 Y83.35 F1200
G1 X171.81 Y83.59 F1200
G0 Z6.12 F180
G0 X170.69 Y83.47 F3000
G0 Z2.97 F180
G1 X170.75 Y83.35 F1200
G1 X170.93 Y83.41 F1200
G1 X170.87 Y83.65 F1200
G1 X170.69 Y83.71 F1200
G1 X170.28 Y83.65 F1200
G1 X170.22 Y83.35 F1200
G1 X170.34 Y83.18 F1200
G1 X170.51 Y83.12 F1200
G1 X170.16 Y83.06 F1200
G1 X170.04 Y82.88 F1200
G1 X170.04 Y82.70 F1200
G1 X170.16 Y82.53 F1200
G1 X170.51 Y82.47 F1200
G1 X170.69 Y82.53 F1200
G1 X170.87 Y82.76 F1200
G0 Z6.12 F180
G0 X169.98 Y83.71 F3000
G0 Z2.97 F180
G1 X169.51 Y83.24 F1200
G1 X169.15 Y82.47 F1200
G0 Z6.12 F180
G0 X169.15 Y82.47 F3000
G0 Z2.97 F180
G1 X169.27 Y83.71 F1200
G0 Z6.12 F180
G0 X169.27 Y83.71 F3000
G0 Z2.97 F180
G1 X168.68 Y82.47 F1200
G0 Z6.12 F180
G0 X168.68 Y82.47 F3000
G0 Z2.97 F180
G1 X168.74 Y83.53 F1200
G1 X168.56 Y83.71 F1200
G1 X168.39 Y83.65 F1200
G1 X168.33 Y83.53 F1200
G1 X168.39 Y83.35 F1200
G1 X168.50 Y83.30 F1200
G0 Z6.12 F180
G0 X188.00 Y88.21 F3000
G0 Z2.97 F180
G1 X38.00 Y88.21 F1200
G0 Z6.12 F180
G0 X41.38 Y83.25 F3000
G0 Z2.97 F180
G1 X41.23 Y83.46 F1200
G1 X41.43 Y83.61 F1200
G1 X41.53 Y83.56 F1200
G1 X41.58 Y83.35 F1200
G1 X41.38 Y82.54 F1200
G0 Z6.12 F180
G0 X41.48 Y82.90 F3000
G0 Z2.97 F180
G1 X41.73 Y83.51 F1200
G1 X41.89 Y83.61 F1200
G1 X42.04 Y83.56 F1200
G1 X42.09 Y83.35 F1200
G1 X41.89 Y82.54 F1200
G0 Z6.12 F180
G0 X41.99 Y82.90 F3000
G0 Z2.97 F180
G1 X42.24 Y83.51 F1200
G1 X42.44 Y83.61 F1200
G1 X42.59 Y83.46 F1200
G1 X42.44 Y82.59 F1200
G1 X42.65 Y82.59 F1200
G1 X42.80 Y82.80 F1200
G0 Z6.12 F180
G0 X42.80 Y82.54 F3000
G0 Z2.97 F180
G1 X43.20 Y82.95 F1200
G1 X43.56 Y83.61 F1200
G1 X43.56 Y82.54 F1200
G1 X43.41 Y82.85 F1200
G1 X43.15 Y83.05 F1200
G1 X43.05 Y83.05 F1200
G1 X43.00 Y82.90 F1200
G1 X43.30 Y82.59 F1200
G1 X43.71 Y82.54 F1200
G0 Z6.12 F180
G0 X44.11 Y82.80 F3000
G0 Z2.97 F180
G1 X43.86 Y82.80 F1200
G1 X43.91 Y82.59 F1200
G1 X44.11 Y82.54 F1200
G1 X44.32 Y82.70 F1200
G1 X44.62 Y83.56 F1200
G0 Z6.12 F180
G0 X44.87 Y83.61 F3000
G0 Z2.97 F180
G1 X44.11 Y83.56 F1200
G1 X44.11 Y83.35 F1200
G1 X44.32 Y83.30 F1200
G0 Z6.12 F180
G0 X45.48 Y83.41 F3000
G0 Z2.97 F180
G1 X45.53 Y83.30 F1200
G1 X45.64 Y83.30 F1200
G1 X45.64 Y83.56 F1200
G1 X45.13 Y83.56 F1200
G1 X45.08 Y83.30 F1200
G1 X45.18 Y83.15 F1200
G1 X45.33 Y83.10 F1200
G1 X45.03 Y83.05 F1200
G1 X44.93 Y82.75 F1200
G1 X45.03 Y82.59 F1200
G1 X45.33 Y82.54 F1200
G1 X45.48 Y82.59 F1200
G1 X45.64 Y82.80 F1200
G0 Z6.12 F180
G0 X46.45 Y83.51 F3000
G0 Z2.97 F180
G1 X46.50 Y83.30 F1200
G1 X46.34 Y82.85 F1200
G1 X46.14 Y82.59 F1200
G1 X45.94 Y82.59 F1200
G1 X46.09 Y83.25 F1200
G1 X46.29 Y83.51 F1200
G1 X46.55 Y83.61 F1200
G1 X46.85 Y83.56 F1200
G1 X46.95 Y83.41 F1200
G1 X46.85 Y83.10 F1200
G1 X46.45 Y83.10 F1200
G1 X46.55 Y82.95 F1200
G1 X46.60 Y82.59 F1200
G1 X46.80 Y82.59 F1200
G1 X46.95 Y82.80 F1200
G0 Z6.12 F180
G0 X47.36 Y82.80 F3000
G0 Z2.97 F180
G1 X47.10 Y82.80 F1200
G1 X47.16 Y82.59 F1200
G1 X47.36 Y82.54 F1200
G1 X47.61 Y82.80 F1200
G1 X47.76 Y83.46 F1200
G1 X47.66 Y83.61 F1200
G1 X47.56 Y83.61 F1200
G1 X47.46 Y83.30 F1200
G1 X47.76 Y82.80 F1200
G0 Z6.12 F180
G0 X47.92 Y82.54 F3000
G0 Z2.97 F180
G1 X48.32 Y82.95 F1200
G1 X48.68 Y83.61 F1200
G1 X48.68 Y82.54 F1200
G1 X48.52 Y82.85 F1200
G1 X48.27 Y83.05 F1200
G1 X48.17 Y83.05 F1200
G1 X48.12 Y82.90 F1200
G1 X48.42 Y82.59 F1200
G1 X48.83 Y82.54 F1200
G0 Z6.12 F180
G0 X49.13 Y83.00 F3000
G0 Z2.97 F180
G1 X49.44 Y83.05 F1200
G1 X49.69 Y83.25 F1200
G1 X49.69 Y83.61 F1200
G1 X49.59 Y83.61 F1200
G1 X49.49 Y83.46 F1200
G1 X49.28 Y82.70 F1200
G1 X49.08 Y82.54 F1200
G1 X48.93 Y82.59 F1200
G1 X48.98 Y82.75 F1200
G1 X49.49 Y82.54 F1200
G1 X49.74 Y82.59 F1200
G1 X49.84 Y82.70 F1200
G0 Z6.12 F180
G0 X49.61 Y78.57 F3000
G0 Z2.97 F180
G1 X48.64 Y77.60 F1200
G1 X49.67 Y77.60 F1200
G0 Z6.12 F180
G0 X50.06 Y77.47 F3000
G0 Z2.97 F180
G1 X50.13 Y77.53 F1200
G1 X50.06 Y77.60 F1200
G1 X50.00 Y77.47 F1200
G1 X50.13 Y77.27 F1200
G1 X50.51 Y77.21 F1200
G1 X50.71 Y77.27 F1200
G1 X50.90 Y77.60 F1200
G1 X50.90 Y77.79 F1200
G1 X50.77 Y77.99 F1200
G1 X50.38 Y78.05 F1200
G1 X50.13 Y77.92 F1200
G0 Z6.12 F180
G0 X50.13 Y77.92 F3000
G0 Z2.97 F180
G1 X50.45 Y78.57 F1200
G0 Z6.12 F180
G0 X50.45 Y78.57 F3000
G0 Z2.97 F180
G1 X51.10 Y78.57 F1200
G0 Z6.12 F180
G0 X51.10 Y78.57 F3000
G0 Z2.97 F180
G1 X50.45 Y78.50 F1200
G0 Z6.12 F180
G0 X50.58 Y78.05 F3000
G0 Z2.97 F180
G1 X50.77 Y77.92 F1200
G1 X50.84 Y77.60 F1200
G1 X50.77 Y77.40 F1200
G1 X50.51 Y77.21 F1200
G0 Z6.12 F180
G0 X49.22 Y77.21 F3000
G0 Z2.97 F180
G1 X49.61 Y78.57 F1200
G0 Z6.12 F180
G0 X49.54 Y78.50 F3000
G0 Z2.97 F180
G1 X49.15 Y77.21 F1200
G0 Z6.12 F180
G0 X48.18 Y77.53 F3000
G0 Z2.97 F180
G1 X47.99 Y77.27 F1200
G1 X47.66 Y77.21 F1200
G1 X47.47 Y77.34 F1200
G1 X47.41 Y77.53 F1200
G1 X47.47 Y78.05 F1200
G1 X47.66 Y78.37 F1200
G1 X47.99 Y78.57 F1200
G1 X48.31 Y78.50 F1200
G1 X48.38 Y78.25 F1200
G1 X48.31 Y78.12 F1200
G1 X48.05 Y78.05 F1200
G1 X47.99 Y78.18 F1200
G0 Z6.12 F180
G0 X46.11 Y77.40 F3000
G0 Z2.97 F180
G1 X45.98 Y77.27 F1200
G1 X45.66 Y77.21 F1200
G1 X45.01 Y77.47 F1200
G1 X44.95 Y77.27 F1200
G1 X45.14 Y77.21 F1200
G1 X45.40 Y77.40 F1200
G1 X45.66 Y78.37 F1200
G1 X45.79 Y78.57 F1200
G1 X45.92 Y78.57 F1200
G1 X45.98 Y78.25 F1200
G1 X45.92 Y78.12 F1200
G1 X45.59 Y77.86 F1200
G1 X45.20 Y77.79 F1200
G0 Z6.12 F180
G0 X44.82 Y77.21 F3000
G0 Z2.97 F180
G1 X44.30 Y77.27 F1200
G1 X43.91 Y77.66 F1200
G1 X43.91 Y77.79 F1200
G1 X44.10 Y77.86 F1200
G1 X44.43 Y77.60 F1200
G1 X44.62 Y77.21 F1200
G1 X44.62 Y78.57 F1200
G1 X44.17 Y77.73 F1200
G1 X43.65 Y77.21 F1200
G0 Z6.12 F180
G0 X42.81 Y77.53 F3000
G0 Z2.97 F180
G1 X42.55 Y77.60 F1200
G1 X42.48 Y77.40 F1200
G1 X42.55 Y77.27 F1200
G1 X42.81 Y77.21 F1200
G1 X43.07 Y77.40 F1200
G1 X43.46 Y78.50 F1200
G0 Z6.12 F180
G0 X43.78 Y78.57 F3000
G0 Z2.97 F180
G1 X43.65 Y78.50 F1200
G1 X43.00 Y78.57 F1200
G1 X42.81 Y78.50 F1200
G1 X42.74 Y78.37 F1200
G1 X42.81 Y78.25 F1200
G1 X43.07 Y78.18 F1200
G0 Z6.12 F180
G0 X41.25 Y77.66 F3000
G0 Z2.97 F180
G1 X41.25 Y77.53 F1200
G1 X41.45 Y77.27 F1200
G1 X41.90 Y77.21 F1200
G1 X42.16 Y77.34 F1200
G1 X42.23 Y77.60 F1200
G1 X42.16 Y77.73 F1200
G1 X41.64 Y78.25 F1200
G1 X41.71 Y78.50 F1200
G1 X41.84 Y78.57 F1200
G1 X41.90 Y78.31 F1200
G1 X41.71 Y77.86 F1200
G1 X41.38 Y77.40 F1200
G1 X41.13 Y77.21 F1200
G0 Z6.12 F180
G0 X41.73 Y70.07 F3000
G0 Z2.97 F180
G1 X41.58 Y70.02 F1200
G1 X41.33 Y69.66 F1200
G1 X41.33 Y69.10 F1200
G1 X41.48 Y69.00 F1200
G1 X41.73 Y69.05 F1200
G1 X41.99 Y69.41 F1200
G1 X41.99 Y69.97 F1200
G1 X41.73 Y70.07 F1200
G1 X41.63 Y69.97 F1200
G1 X41.68 Y69.66 F1200
G1 X41.89 Y69.41 F1200
G1 X42.14 Y69.26 F1200
G0 Z6.12 F180
G0 X42.90 Y69.61 F3000
G0 Z2.97 F180
G1 X43.05 Y69.51 F1200
G1 X43.30 Y69.56 F1200
G1 X43.41 Y69.71 F1200
G1 X43.35 Y69.97 F1200
G1 X43.20 Y70.07 F1200
G1 X42.70 Y69.97 F1200
G1 X42.39 Y69.46 F1200
G1 X42.39 Y69.00 F1200
G1 X42.65 Y69.15 F1200
G1 X42.80 Y69.41 F1200
G1 X42.90 Y69.76 F1200
G1 X42.85 Y69.97 F1200
G0 Z6.12 F180
G0 X43.76 Y69.26 F3000
G0 Z2.97 F180
G1 X43.51 Y69.26 F1200
G1 X43.56 Y69.05 F1200
G1 X43.86 Y69.05 F1200
G1 X44.11 Y69.51 F1200
G1 X44.17 Y69.91 F1200
G1 X44.06 Y70.07 F1200
G1 X43.96 Y70.07 F1200
G1 X43.86 Y69.76 F1200
G1 X44.17 Y69.26 F1200
G0 Z6.12 F180
G0 X44.42 Y69.36 F3000
G0 Z2.97 F180
G1 X44.57 Y69.05 F1200
G1 X44.93 Y69.00 F1200
G1 X45.13 Y69.10 F1200
G1 X45.13 Y69.41 F1200
G1 X44.72 Y69.81 F1200
G1 X44.77 Y70.02 F1200
G1 X44.87 Y70.07 F1200
G1 X44.93 Y69.86 F1200
G1 X44.77 Y69.51 F1200
G1 X44.32 Y69.00 F1200
G0 Z6.12 F180
G0 X45.23 Y64.66 F3000
G0 Z2.97 F180
G1 X45.28 Y64.55 F1200
G1 X45.43 Y64.60 F1200
G1 X45.38 Y64.81 F1200
G1 X44.87 Y64.81 F1200
G1 X44.82 Y64.55 F1200
G1 X44.93 Y64.40 F1200
G1 X45.08 Y64.35 F1200
G1 X44.77 Y64.30 F1200
G1 X44.67 Y64.00 F1200
G1 X44.77 Y63.84 F1200
G1 X45.08 Y63.79 F1200
G1 X45.23 Y63.84 F1200
G1 X45.38 Y64.05 F1200
G0 Z6.12 F180
G0 X45.58 Y63.95 F3000
G0 Z2.97 F180
G1 X45.64 Y63.79 F1200
G1 X45.74 Y63.79 F1200
G1 X45.94 Y64.10 F1200
G1 X46.09 Y64.71 F1200
G1 X45.94 Y64.86 F1200
G1 X45.74 Y64.71 F1200
G1 X45.89 Y64.50 F1200
G0 Z6.12 F180
G0 X46.04 Y64.40 F3000
G0 Z2.97 F180
G1 X46.24 Y64.45 F1200
G1 X46.65 Y64.86 F1200
G1 X46.75 Y64.81 F1200
G1 X46.75 Y64.71 F1200
G0 Z6.12 F180
G0 X46.60 Y64.05 F3000
G0 Z2.97 F180
G1 X46.45 Y63.84 F1200
G1 X46.29 Y63.79 F1200
G1 X46.19 Y63.95 F1200
G1 X46.14 Y64.40 F1200
G0 Z6.12 F180
G0 X44.47 Y63.95 F3000
G0 Z2.97 F180
G1 X44.37 Y63.84 F1200
G1 X44.11 Y63.79 F1200
G1 X43.61 Y64.00 F1200
G1 X43.56 Y63.84 F1200
G1 X43.71 Y63.79 F1200
G1 X43.91 Y63.95 F1200
G1 X44.11 Y64.71 F1200
G1 X44.22 Y64.86 F1200
G1 X44.32 Y64.86 F1200
G1 X44.32 Y64.50 F1200
G1 X44.06 Y64.30 F1200
G1 X43.76 Y64.25 F1200
G0 Z6.12 F180
G0 X43.46 Y63.79 F3000
G0 Z2.97 F180
G1 X43.05 Y63.84 F1200
G1 X42.75 Y64.15 F1200
G1 X42.75 Y64.25 F1200
G1 X42.90 Y64.30 F1200
G1 X43.15 Y64.10 F1200
G1 X43.30 Y63.79 F1200
G1 X43.30 Y64.86 F1200
G1 X42.95 Y64.20 F1200
G1 X42.54 Y63.79 F1200
G0 Z6.12 F180
G0 X41.94 Y63.79 F3000
G0 Z2.97 F180
G1 X42.24 Y64.45 F1200
G1 X42.65 Y64.86 F1200
G0 Z6.12 F180
G0 X42.04 Y64.86 F3000
G0 Z2.97 F180
G1 X41.53 Y63.79 F1200
G0 Z6.12 F180
G0 X41.53 Y63.79 F3000
G0 Z2.97 F180
G1 X41.58 Y64.71 F1200
G1 X41.43 Y64.86 F1200
G1 X41.23 Y64.71 F1200
G1 X41.38 Y64.50 F1200
G0 Z6.12 F180
G0 X42.04 Y64.86 F3000
G0 Z2.97 F180
G1 X41.94 Y63.79 F1200
G0 Z6.12 F180
G0 X48.17 Y64.55 F3000
G0 Z2.97 F180
G1 X48.22 Y64.45 F1200
G1 X48.42 Y64.50 F1200
G1 X48.42 Y64.81 F1200
G1 X48.17 Y64.86 F1200
G1 X47.92 Y64.71 F1200
G1 X47.76 Y64.45 F1200
G1 X47.71 Y64.05 F1200
G1 X47.76 Y63.90 F1200
G1 X47.92 Y63.79 F1200
G1 X48.17 Y63.84 F1200
G1 X48.32 Y64.05 F1200
G0 Z6.12 F180
G0 X48.83 Y64.50 F3000
G0 Z2.97 F180
G1 X48.68 Y64.71 F1200
G1 X48.88 Y64.86 F1200
G1 X49.03 Y64.71 F1200
G1 X48.88 Y64.05 F1200
G1 X48.98 Y63.79 F1200
G1 X49.28 Y63.95 F1200
G1 X49.54 Y64.50 F1200
G0 Z6.12 F180
G0 X49.64 Y64.86 F3000
G0 Z2.97 F180
G1 X49.28 Y63.69 F1200
G1 X49.08 Y63.24 F1200
G1 X48.98 Y63.19 F1200
G1 X48.93 Y63.34 F1200
G1 X49.08 Y63.64 F1200
G1 X49.64 Y64.05 F1200
G0 Z6.12 F180
G0 X49.94 Y64.25 F3000
G0 Z2.97 F180
G1 X50.25 Y64.30 F1200
G1 X50.50 Y64.50 F1200
G1 X50.50 Y64.86 F1200
G1 X50.40 Y64.86 F1200
G1 X50.30 Y64.71 F1200
G1 X50.09 Y63.95 F1200
G1 X49.89 Y63.79 F1200
G1 X49.74 Y63.84 F1200
G1 X49.79 Y64.00 F1200
G1 X50.30 Y63.79 F1200
G1 X50.55 Y63.84 F1200
G1 X50.65 Y63.95 F1200
G0 Z6.12 F180
G0 X51.01 Y64.05 F3000
G0 Z2.97 F180
G1 X50.75 Y64.05 F1200
G1 X50.80 Y63.84 F1200
G1 X51.11 Y63.84 F1200
G1 X51.36 Y64.30 F1200
G1 X51.41 Y64.71 F1200
G1 X51.31 Y64.86 F1200
G1 X51.21 Y64.86 F1200
G1 X51.11 Y64.55 F1200
G1 X51.41 Y64.05 F1200
G0 Z6.12 F180
G0 X51.82 Y63.79 F3000
G0 Z2.97 F180
G1 X52.02 Y64.60 F1200
G1 X51.97 Y64.81 F1200
G1 X51.87 Y64.86 F1200
G1 X51.67 Y64.71 F1200
G1 X51.82 Y64.50 F1200
G0 Z6.12 F180
G0 X51.92 Y64.15 F3000
G0 Z2.97 F180
G1 X52.17 Y64.76 F1200
G1 X52.43 Y64.86 F1200
G1 X52.58 Y64.71 F1200
G1 X52.43 Y63.84 F1200
G1 X52.63 Y63.84 F1200
G1 X52.78 Y64.05 F1200
G0 Z6.12 F180
G0 X53.44 Y64.86 F3000
G0 Z2.97 F180
G1 X53.29 Y64.71 F1200
G1 X53.08 Y63.95 F1200
G1 X52.88 Y63.79 F1200
G1 X52.73 Y63.84 F1200
G1 X52.78 Y64.00 F1200
G1 X53.24 Y63.79 F1200
G1 X53.54 Y63.84 F1200
G1 X53.64 Y63.95 F1200
G1 X53.74 Y64.15 F1200
G1 X53.79 Y64.60 F1200
G1 X53.69 Y64.81 F1200
G1 X53.44 Y64.86 F1200
G1 X53.34 Y64.76 F1200
G1 X53.39 Y64.50 F1200
G1 X53.59 Y64.25 F1200
G1 X53.84 Y64.10 F1200
G0 Z6.12 F180
G0 X54.60 Y64.76 F3000
G0 Z2.97 F180
G1 X54.66 Y64.55 F1200
G1 X54.50 Y64.10 F1200
G1 X54.30 Y63.84 F1200
G1 X54.10 Y63.84 F1200
G1 X54.25 Y64.50 F1200
G1 X54.45 Y64.76 F1200
G1 X54.71 Y64.86 F1200
G1 X55.01 Y64.81 F1200
G1 X55.11 Y64.66 F1200
G1 X55.01 Y64.35 F1200
G1 X54.60 Y64.35 F1200
G1 X54.71 Y64.20 F1200
G1 X54.76 Y63.84 F1200
G1 X54.96 Y63.84 F1200
G1 X55.11 Y64.05 F1200
G0 Z6.12 F180
G0 X55.47 Y64.50 F3000
G0 Z2.97 F180
G1 X55.31 Y64.71 F1200
G1 X55.52 Y64.86 F1200
G1 X55.67 Y64.71 F1200
G1 X55.52 Y64.05 F1200
G1 X55.62 Y63.79 F1200
G1 X55.92 Y63.95 F1200
G1 X56.18 Y64.50 F1200
G0 Z6.12 F180
G0 X56.28 Y64.86 F3000
G0 Z2.97 F180
G1 X55.92 Y63.69 F1200
G1 X55.72 Y63.24 F1200
G1 X55.62 Y63.19 F1200
G1 X55.57 Y63.34 F1200
G1 X55.72 Y63.64 F1200
G1 X56.28 Y64.05 F1200
G0 Z6.12 F180
G0 X57.14 Y64.05 F3000
G0 Z2.97 F180
G1 X56.99 Y63.84 F1200
G1 X56.73 Y63.79 F1200
G1 X56.58 Y63.90 F1200
G1 X56.53 Y64.05 F1200
G1 X56.58 Y64.45 F1200
G1 X56.73 Y64.71 F1200
G1 X56.99 Y64.86 F1200
G1 X57.24 Y64.81 F1200
G1 X57.24 Y64.50 F1200
G1 X57.04 Y64.45 F1200
G1 X56.99 Y64.55 F1200
G0 Z6.12 F180
G0 X58.05 Y64.55 F3000
G0 Z2.97 F180
G1 X57.95 Y64.40 F1200
G1 X57.75 Y64.35 F1200
G1 X57.75 Y64.71 F1200
G1 X57.85 Y64.81 F1200
G1 X58.15 Y64.86 F1200
G1 X58.30 Y64.71 F1200
G1 X58.30 Y64.50 F1200
G1 X58.15 Y64.15 F1200
G1 X57.80 Y63.84 F1200
G1 X57.54 Y63.79 F1200
G1 X57.49 Y63.95 F1200
G1 X57.70 Y64.00 F1200
G1 X57.90 Y63.79 F1200
G1 X57.85 Y63.49 F1200
G1 X57.59 Y63.19 F1200
G1 X57.54 Y63.34 F1200
G1 X57.70 Y63.64 F1200
G1 X58.30 Y64.05 F1200
G0 Z6.12 F180
G0 X58.71 Y63.79 F3000
G0 Z2.97 F180
G1 X58.91 Y64.60 F1200
G1 X58.86 Y64.81 F1200
G1 X58.76 Y64.86 F1200
G1 X58.56 Y64.71 F1200
G1 X58.71 Y64.50 F1200
G0 Z6.12 F180
G0 X58.81 Y64.15 F3000
G0 Z2.97 F180
G1 X59.06 Y64.76 F1200
G1 X59.32 Y64.86 F1200
G1 X59.47 Y64.71 F1200
G1 X59.32 Y63.84 F1200
G1 X59.52 Y63.84 F1200
G1 X59.67 Y64.05 F1200
G0 Z6.12 F180
G0 X59.93 Y64.50 F3000
G0 Z2.97 F180
G1 X59.77 Y64.71 F1200
G1 X59.98 Y64.86 F1200
G1 X60.13 Y64.71 F1200
G1 X59.98 Y64.05 F1200
G1 X60.08 Y63.79 F1200
G1 X60.38 Y63.95 F1200
G1 X60.64 Y64.50 F1200
G0 Z6.12 F180
G0 X60.74 Y64.86 F3000
G0 Z2.97 F180
G1 X60.38 Y63.69 F1200
G1 X60.18 Y63.24 F1200
G1 X60.08 Y63.19 F1200
G1 X60.03 Y63.34 F1200
G1 X60.18 Y63.64 F1200
G1 X60.74 Y64.05 F1200
G0 Z6.12 F180
G0 X68.98 Y120.18 F3000
G0 Z2.97 F180
G1 X68.74 Y119.87 F1200
G1 X68.59 Y119.79 F1200
G1 X68.43 Y119.87 F1200
G1 X68.35 Y120.03 F1200
G1 X68.35 Y120.42 F1200
G1 X68.19 Y120.66 F1200
G1 X68.66 Y120.58 F1200
G1 X68.82 Y120.66 F1200
G1 X68.98 Y120.89 F1200
G1 X68.98 Y121.13 F1200
G1 X68.82 Y121.37 F1200
G1 X68.35 Y121.45 F1200
G1 X67.95 Y121.29 F1200
G1 X67.64 Y120.89 F1200
G1 X67.48 Y120.50 F1200
G1 X67.40 Y119.87 F1200
G1 X67.56 Y119.79 F1200
G1 X67.72 Y119.87 F1200
G1 X68.03 Y120.26 F1200
G1 X68.27 Y120.97 F1200
G1 X68.27 Y121.21 F1200
G1 X68.19 Y121.29 F1200
G0 Z6.12 F180
G0 X69.85 Y120.26 F3000
G0 Z2.97 F180
G1 X69.77 Y120.42 F1200
G1 X69.45 Y120.50 F1200
G1 X69.22 Y120.34 F1200
G1 X69.14 Y120.03 F1200
G1 X69.22 Y119.87 F1200
G1 X69.37 Y119.79 F1200
G1 X69.69 Y119.87 F1200
G1 X69.93 Y120.50 F1200
G1 X69.85 Y120.11 F1200
G1 X69.85 Y119.87 F1200
G1 X69.93 Y119.79 F1200
G1 X70.16 Y119.87 F1200
G1 X70.40 Y120.18 F1200
G0 Z6.12 F180
G0 X72.21 Y119.79 F3000
G0 Z2.97 F180
G1 X72.61 Y121.13 F1200
G0 Z6.12 F180
G0 X72.68 Y121.21 F3000
G0 Z2.97 F180
G1 X72.13 Y120.97 F1200
G0 Z6.12 F180
G0 X72.13 Y120.97 F3000
G0 Z2.97 F180
G1 X72.76 Y121.45 F1200
G0 Z6.12 F180
G0 X72.76 Y121.45 F3000
G0 Z2.97 F180
G1 X72.29 Y119.79 F1200
G0 Z6.12 F180
G0 X73.71 Y119.95 F3000
G0 Z2.97 F180
G1 X73.63 Y119.87 F1200
G1 X73.71 Y119.79 F1200
G1 X73.79 Y119.87 F1200
G1 X73.71 Y119.95 F1200
G0 Z6.12 F180
G0 X74.50 Y119.87 F3000
G0 Z2.97 F180
G1 X74.42 Y120.03 F1200
G1 X74.42 Y120.42 F1200
G1 X74.58 Y120.97 F1200
G1 X74.89 Y121.37 F1200
G1 X75.05 Y121.45 F1200
G0 Z6.12 F180
G0 X75.44 Y121.21 F3000
G0 Z2.97 F180
G1 X75.36 Y121.13 F1200
G1 X75.44 Y121.05 F1200
G1 X75.52 Y121.21 F1200
G1 X75.44 Y121.37 F1200
G1 X75.29 Y121.45 F1200
G1 X74.81 Y121.37 F1200
G1 X74.50 Y120.97 F1200
G1 X74.34 Y120.42 F1200
G1 X74.34 Y120.11 F1200
G1 X74.50 Y119.87 F1200
G1 X74.66 Y119.79 F1200
G1 X75.13 Y119.87 F1200
G1 X75.36 Y120.18 F1200
G1 X75.36 Y120.42 F1200
G1 X75.21 Y120.66 F1200
G1 X74.81 Y120.74 F1200
G1 X74.66 Y120.66 F1200
G1 X74.42 Y120.34 F1200
G0 Z6.12 F180
G0 X74.89 Y119.79 F3000
G0 Z2.97 F180
G1 X75.21 Y120.03 F1200
G1 X75.29 Y120.18 F1200
G1 X75.21 Y120.66 F1200
G0 Z6.12 F180
M400
